{"type":"FeatureCollection","name":"sark-green-plots","crs":{"type":"name","properties":{"name":"urn:ogc:def:crs:OGC:1.3:CRS84"}},"features":[{"type":"Feature","properties":{"fid":1,"sq_yards":"394","plot_no":"01","facing":"S/E","status":"RES","per_sq_ft_price":null,"per_sq_yard_price":null},"geometry":{"type":"Polygon","coordinates":[[[78.45336834629627,17.20638501355114],[78.45358361330128,17.206353214658176],[78.45355476308413,17.206206939680126],[78.4533337260357,17.20625145816395],[78.45336834629627,17.20638501355114]]]}},{"type":"Feature","properties":{"fid":2,"sq_yards":"394","plot_no":"01","facing":"S/E","status":"AVL","per_sq_ft_price":null,"per_sq_yard_price":null},"geometry":{"type":"Polygon","coordinates":[[[78.45339684910307,17.206519584641082],[78.45361211610808,17.206487785748116],[78.45358326589093,17.206341510770066],[78.4533622288425,17.206386029253892],[78.45339684910307,17.206519584641082]]]}},{"type":"Feature","properties":{"fid":3,"sq_yards":"394","plot_no":"01","facing":"S/E","status":"AVL","per_sq_ft_price":null,"per_sq_yard_price":null},"geometry":{"type":"Polygon","coordinates":[[[78.45342535190987,17.206654155731023],[78.45364061891487,17.206622356838057],[78.45361176869773,17.206476081860007],[78.45339073164929,17.206520600343833],[78.45342535190987,17.206654155731023]]]}},{"type":"Feature","properties":{"fid":4,"sq_yards":"394","plot_no":"01","facing":"S/E","status":"AVL","per_sq_ft_price":null,"per_sq_yard_price":null},"geometry":{"type":"Polygon","coordinates":[[[78.45345385471667,17.206788726820964],[78.45366912172167,17.206756927927998],[78.45364027150453,17.206610652949948],[78.45341923445609,17.206655171433773],[78.45345385471667,17.206788726820964]]]}},{"type":"Feature","properties":{"fid":5,"sq_yards":"394","plot_no":"01","facing":"S/E","status":"SOLD","per_sq_ft_price":null,"per_sq_yard_price":null},"geometry":{"type":"Polygon","coordinates":[[[78.45348235752347,17.206923297910905],[78.45369762452847,17.20689149901794],[78.45366877431132,17.20674522403989],[78.45344773726289,17.206789742523714],[78.45348235752347,17.206923297910905]]]}},{"type":"Feature","properties":{"fid":6,"sq_yards":"394","plot_no":"01","facing":"S/E","status":"AVL","per_sq_ft_price":null,"per_sq_yard_price":null},"geometry":{"type":"Polygon","coordinates":[[[78.45351086033027,17.207057869000845],[78.45372612733527,17.20702607010788],[78.45369727711812,17.20687979512983],[78.45347624006969,17.206924313613655],[78.45351086033027,17.207057869000845]]]}},{"type":"Feature","properties":{"fid":7,"sq_yards":"394","plot_no":"01","facing":"S/E","status":"SOLD","per_sq_ft_price":null,"per_sq_yard_price":null},"geometry":{"type":"Polygon","coordinates":[[[78.45353936313707,17.207192440090786],[78.45375463014207,17.20716064119782],[78.45372577992492,17.20701436621977],[78.45350474287649,17.207058884703596],[78.45353936313707,17.207192440090786]]]}},{"type":"Feature","properties":{"fid":8,"sq_yards":"394","plot_no":"01","facing":"S/E","status":"AVL","per_sq_ft_price":null,"per_sq_yard_price":null},"geometry":{"type":"Polygon","coordinates":[[[78.45356786594387,17.207327011180727],[78.45378313294887,17.20729521228776],[78.45375428273172,17.20714893730971],[78.45353324568329,17.207193455793536],[78.45356786594387,17.207327011180727]]]}},{"type":"Feature","properties":{"fid":9,"sq_yards":"445","plot_no":"016","facing":"S/W","status":"AVL","per_sq_ft_price":null,"per_sq_yard_price":null},"geometry":{"type":"Polygon","coordinates":[[[78.45387903553733,17.206306525413137],[78.45384422150087,17.206112419098407],[78.45366304641323,17.20614974725167],[78.4537021233929,17.206327904243047],[78.45387903553733,17.206306525413137]]]}},{"type":"Feature","properties":{"fid":10,"sq_yards":"445","plot_no":"016","facing":"S/W","status":"AVL","per_sq_ft_price":null,"per_sq_yard_price":null},"geometry":{"type":"Polygon","coordinates":[[[78.4540531057196,17.20627259074111],[78.45401829168314,17.20607848442638],[78.4538371165955,17.206115812579643],[78.45387619357517,17.20629396957102],[78.4540531057196,17.20627259074111]]]}},{"type":"Feature","properties":{"fid":11,"sq_yards":"267","plot_no":"015","facing":"W","status":"AVL","per_sq_ft_price":null,"per_sq_yard_price":null},"geometry":{"type":"Polygon","coordinates":[[[78.45372628007127,17.206441415608086],[78.45389857402718,17.20641341953798],[78.45387903553733,17.206306525413137],[78.45370407724191,17.206339611696478],[78.45372628007127,17.206441415608086]]]}},{"type":"Feature","properties":{"fid":12,"sq_yards":"267","plot_no":"015","facing":"W","status":"AVL","per_sq_ft_price":null,"per_sq_yard_price":null},"geometry":{"type":"Polygon","coordinates":[[[78.45374691107487,17.20655121545367],[78.45391920503079,17.206523219383563],[78.45389966654093,17.20641632525872],[78.45372470824552,17.20644941154206],[78.45374691107487,17.20655121545367]]]}},{"type":"Feature","properties":{"fid":13,"sq_yards":"267","plot_no":"015","facing":"W","status":"AVL","per_sq_ft_price":null,"per_sq_yard_price":null},"geometry":{"type":"Polygon","coordinates":[[[78.45376754207848,17.20666101529925],[78.4539398360344,17.206633019229145],[78.45392029754454,17.2065261251043],[78.45374533924912,17.206559211387642],[78.45376754207848,17.20666101529925]]]}},{"type":"Feature","properties":{"fid":14,"sq_yards":"267","plot_no":"015","facing":"W","status":"AVL","per_sq_ft_price":null,"per_sq_yard_price":null},"geometry":{"type":"Polygon","coordinates":[[[78.45378817308209,17.206770815144832],[78.453960467038,17.206742819074726],[78.45394092854815,17.206635924949882],[78.45376597025273,17.206669011233224],[78.45378817308209,17.206770815144832]]]}},{"type":"Feature","properties":{"fid":15,"sq_yards":"267","plot_no":"015","facing":"W","status":"AVL","per_sq_ft_price":null,"per_sq_yard_price":null},"geometry":{"type":"Polygon","coordinates":[[[78.4538088040857,17.206880614990414],[78.45398109804161,17.20685261892031],[78.45396155955176,17.206745724795464],[78.45378660125634,17.206778811078806],[78.4538088040857,17.206880614990414]]]}},{"type":"Feature","properties":{"fid":16,"sq_yards":"267","plot_no":"015","facing":"W","status":"SOLD","per_sq_ft_price":null,"per_sq_yard_price":null},"geometry":{"type":"Polygon","coordinates":[[[78.4538294350893,17.206990414835996],[78.45400172904522,17.20696241876589],[78.45398219055537,17.206855524641046],[78.45380723225995,17.206888610924388],[78.4538294350893,17.206990414835996]]]}},{"type":"Feature","properties":{"fid":17,"sq_yards":"267","plot_no":"015","facing":"W","status":"AVL","per_sq_ft_price":null,"per_sq_yard_price":null},"geometry":{"type":"Polygon","coordinates":[[[78.45385006609291,17.207100214681578],[78.45402236004882,17.207072218611472],[78.45400282155897,17.206965324486628],[78.45382786326356,17.20699841076997],[78.45385006609291,17.207100214681578]]]}},{"type":"Feature","properties":{"fid":18,"sq_yards":"267","plot_no":"015","facing":"W","status":"RES","per_sq_ft_price":null,"per_sq_yard_price":null},"geometry":{"type":"Polygon","coordinates":[[[78.45390284527362,17.20641208289329],[78.45407513922953,17.206384086823185],[78.45405560073968,17.20627719269834],[78.45388064244426,17.206310278981682],[78.45390284527362,17.20641208289329]]]}},{"type":"Feature","properties":{"fid":19,"sq_yards":"267","plot_no":"015","facing":"W","status":"RES","per_sq_ft_price":null,"per_sq_yard_price":null},"geometry":{"type":"Polygon","coordinates":[[[78.45392309718486,17.20652194717048],[78.45409539114077,17.206493951100374],[78.45407585265092,17.20638705697553],[78.4539008943555,17.20642014325887],[78.45392309718486,17.20652194717048]]]}},{"type":"Feature","properties":{"fid":20,"sq_yards":"267","plot_no":"015","facing":"W","status":"RES","per_sq_ft_price":null,"per_sq_yard_price":null},"geometry":{"type":"Polygon","coordinates":[[[78.4539433490961,17.206631811447668],[78.454115643052,17.206603815377562],[78.45409610456215,17.206496921252718],[78.45392114626674,17.20653000753606],[78.4539433490961,17.206631811447668]]]}},{"type":"Feature","properties":{"fid":21,"sq_yards":"267","plot_no":"015","facing":"W","status":"SOLD","per_sq_ft_price":null,"per_sq_yard_price":null},"geometry":{"type":"Polygon","coordinates":[[[78.45396360100733,17.206741675724857],[78.45413589496324,17.20671367965475],[78.45411635647339,17.206606785529907],[78.45394139817797,17.20663987181325],[78.45396360100733,17.206741675724857]]]}},{"type":"Feature","properties":{"fid":22,"sq_yards":"267","plot_no":"015","facing":"W","status":"AVL","per_sq_ft_price":null,"per_sq_yard_price":null},"geometry":{"type":"Polygon","coordinates":[[[78.45398385291857,17.206851540002045],[78.45415614687448,17.20682354393194],[78.45413660838463,17.206716649807095],[78.45396165008921,17.206749736090437],[78.45398385291857,17.206851540002045]]]}},{"type":"Feature","properties":{"fid":23,"sq_yards":"267","plot_no":"015","facing":"W","status":"AVL","per_sq_ft_price":null,"per_sq_yard_price":null},"geometry":{"type":"Polygon","coordinates":[[[78.4540041048298,17.206961404279234],[78.45417639878572,17.206933408209128],[78.45415686029587,17.206826514084284],[78.45398190200045,17.206859600367626],[78.4540041048298,17.206961404279234]]]}},{"type":"Feature","properties":{"fid":24,"sq_yards":"267","plot_no":"015","facing":"W","status":"AVL","per_sq_ft_price":null,"per_sq_yard_price":null},"geometry":{"type":"Polygon","coordinates":[[[78.45402435674104,17.207071268556422],[78.45419665069696,17.207043272486317],[78.4541771122071,17.206936378361473],[78.45400215391169,17.206969464644814],[78.45402435674104,17.207071268556422]]]}},{"type":"Feature","properties":{"fid":25,"sq_yards":"400","plot_no":"08","facing":"N/W","status":"SOLD","per_sq_ft_price":null,"per_sq_yard_price":null},"geometry":{"type":"Polygon","coordinates":[[[78.45389374091414,17.207246030867086],[78.4538500660929,17.207100214681578],[78.45403776539314,17.20706908978273],[78.45406173782507,17.207225717256293],[78.45389374091414,17.207246030867086]]]}},{"type":"Feature","properties":{"fid":26,"sq_yards":"400","plot_no":"025","facing":"N/E","status":"AVL","per_sq_ft_price":null,"per_sq_yard_price":null},"geometry":{"type":"Polygon","coordinates":[[[78.45406173782507,17.207225717256293],[78.45423611436553,17.2071932154744],[78.45421484893376,17.207036800569174],[78.45403776539314,17.20706908978273],[78.45406173782507,17.207225717256293]]]}},{"type":"Feature","properties":{"fid":27,"sq_yards":"382","plot_no":"035","facing":"S/W","status":"RES","per_sq_ft_price":null,"per_sq_yard_price":null},"geometry":{"type":"Polygon","coordinates":[[[78.45415927691377,17.20621390605006],[78.4543133382279,17.206185014467138],[78.4542821479005,17.20600353910872],[78.45412336077919,17.206040556484844],[78.45415927691377,17.20621390605006]]]}},{"type":"Feature","properties":{"fid":28,"sq_yards":"382","plot_no":"035","facing":"S/W","status":"RES","per_sq_ft_price":null,"per_sq_yard_price":null},"geometry":{"type":"Polygon","coordinates":[[[78.45431711887367,17.206178694416963],[78.45447118018781,17.20614980283404],[78.4544399898604,17.205968327475624],[78.4542812027391,17.206005344851746],[78.45431711887367,17.206178694416963]]]}},{"type":"Feature","properties":{"fid":29,"sq_yards":"220","plot_no":"034","facing":"W","status":"AVL","per_sq_ft_price":null,"per_sq_yard_price":null},"geometry":{"type":"Polygon","coordinates":[[[78.45417001654025,17.206309146279246],[78.4543327709124,17.206282534223472],[78.4543133382279,17.206185014467138],[78.45415927691377,17.20621390605006],[78.45417001654025,17.206309146279246]]]}},{"type":"Feature","properties":{"fid":30,"sq_yards":"220","plot_no":"034","facing":"W","status":"SOLD","per_sq_ft_price":null,"per_sq_yard_price":null},"geometry":{"type":"Polygon","coordinates":[[[78.45418890102634,17.20641052728753],[78.4543516553985,17.206383915231758],[78.454332222714,17.206286395475423],[78.45417816139987,17.206315287058345],[78.45418890102634,17.20641052728753]]]}},{"type":"Feature","properties":{"fid":31,"sq_yards":"220","plot_no":"034","facing":"W","status":"AVL","per_sq_ft_price":null,"per_sq_yard_price":null},"geometry":{"type":"Polygon","coordinates":[[[78.45420778551244,17.206511908295816],[78.4543705398846,17.206485296240043],[78.4543511072001,17.20638777648371],[78.45419704588596,17.20641666806663],[78.45420778551244,17.206511908295816]]]}},{"type":"Feature","properties":{"fid":32,"sq_yards":"220","plot_no":"034","facing":"W","status":"AVL","per_sq_ft_price":null,"per_sq_yard_price":null},"geometry":{"type":"Polygon","coordinates":[[[78.45422666999853,17.2066132893041],[78.45438942437069,17.20658667724833],[78.45436999168619,17.206489157491994],[78.45421593037206,17.206518049074916],[78.45422666999853,17.2066132893041]]]}},{"type":"Feature","properties":{"fid":33,"sq_yards":"220","plot_no":"034","facing":"W","status":"RES","per_sq_ft_price":null,"per_sq_yard_price":null},"geometry":{"type":"Polygon","coordinates":[[[78.45424244122974,17.206706471448765],[78.4544051956019,17.20667985939299],[78.4543857629174,17.206582339636658],[78.45423170160326,17.20661123121958],[78.45424244122974,17.206706471448765]]]}},{"type":"Feature","properties":{"fid":34,"sq_yards":"220","plot_no":"034","facing":"W","status":"RES","per_sq_ft_price":null,"per_sq_yard_price":null},"geometry":{"type":"Polygon","coordinates":[[[78.45425821246094,17.20679965359343],[78.4544209668331,17.206773041537655],[78.4544015341486,17.20667552178132],[78.45424747283447,17.206704413364243],[78.45425821246094,17.20679965359343]]]}},{"type":"Feature","properties":{"fid":35,"sq_yards":"220","plot_no":"028","facing":"W","status":"AVL","per_sq_ft_price":null,"per_sq_yard_price":null},"geometry":{"type":"Polygon","coordinates":[[[78.45428761023977,17.206906936081094],[78.4544459658451,17.20687682253605],[78.4544209668331,17.20677304153765],[78.45426904623248,17.206797882157677],[78.45428761023977,17.206906936081094]]]}},{"type":"Feature","properties":{"fid":36,"sq_yards":"220","plot_no":"027","facing":"W","status":"RES","per_sq_ft_price":null,"per_sq_yard_price":null},"geometry":{"type":"Polygon","coordinates":[[[78.45430593843483,17.207002739140613],[78.45446356091239,17.206974726555238],[78.4544459658451,17.206876822536046],[78.45428761023977,17.206906936081094],[78.45430593843483,17.207002739140613]]]}},{"type":"Feature","properties":{"fid":37,"sq_yards":"397","plot_no":"026","facing":"N/W","status":"AVL","per_sq_ft_price":null,"per_sq_yard_price":null},"geometry":{"type":"Polygon","coordinates":[[[78.45434409989096,17.207172785640417],[78.45449823402771,17.2071520996895],[78.45446356091239,17.206974726555238],[78.45430593843483,17.207002739140613],[78.45434409989096,17.207172785640417]]]}},{"type":"Feature","properties":{"fid":38,"sq_yards":"397","plot_no":"026","facing":"N/W","status":"RES","per_sq_ft_price":null,"per_sq_yard_price":null},"geometry":{"type":"Polygon","coordinates":[[[78.45450078169938,17.207147232396512],[78.45465491583613,17.207126546445597],[78.45462024272081,17.206949173311333],[78.45446262024325,17.206977185896708],[78.45450078169938,17.207147232396512]]]}},{"type":"Feature","properties":{"fid":39,"sq_yards":"220","plot_no":"037","facing":"E","status":"AVL","per_sq_ft_price":null,"per_sq_yard_price":null},"geometry":{"type":"Polygon","coordinates":[[[78.4543327709124,17.206282534223472],[78.45449415775309,17.20625846440184],[78.45447118018781,17.20614980283404],[78.4543133382279,17.206185014467138],[78.4543327709124,17.206282534223472]]]}},{"type":"Feature","properties":{"fid":40,"sq_yards":"220","plot_no":"037","facing":"E","status":"AVL","per_sq_ft_price":null,"per_sq_yard_price":null},"geometry":{"type":"Polygon","coordinates":[[[78.45434994756424,17.206384192036005],[78.45451133440493,17.206360122214374],[78.45448835683965,17.206251460646573],[78.45433051487974,17.20628667227967],[78.45434994756424,17.206384192036005]]]}},{"type":"Feature","properties":{"fid":41,"sq_yards":"220","plot_no":"037","facing":"E","status":"AVL","per_sq_ft_price":null,"per_sq_yard_price":null},"geometry":{"type":"Polygon","coordinates":[[[78.45436712421608,17.206485849848537],[78.45452851105676,17.206461780026906],[78.45450553349148,17.206353118459106],[78.45434769153158,17.206388330092203],[78.45436712421608,17.206485849848537]]]}},{"type":"Feature","properties":{"fid":42,"sq_yards":"220","plot_no":"037","facing":"E","status":"SOLD","per_sq_ft_price":null,"per_sq_yard_price":null},"geometry":{"type":"Polygon","coordinates":[[[78.45438430086791,17.20658750766107],[78.4545456877086,17.20656343783944],[78.45452271014332,17.206454776271638],[78.45436486818342,17.206489987904735],[78.45438430086791,17.20658750766107]]]}},{"type":"Feature","properties":{"fid":43,"sq_yards":"220","plot_no":"041","facing":"E","status":"AVL","per_sq_ft_price":null,"per_sq_yard_price":null},"geometry":{"type":"Polygon","coordinates":[[[78.4544015341486,17.206675521781317],[78.45456281750492,17.206651012242514],[78.45454568770859,17.206563437839442],[78.45438942437069,17.20658667724833],[78.4544015341486,17.206675521781317]]]}},{"type":"Feature","properties":{"fid":44,"sq_yards":"220","plot_no":"041","facing":"E","status":"AVL","per_sq_ft_price":null,"per_sq_yard_price":null},"geometry":{"type":"Polygon","coordinates":[[[78.45441936785036,17.20677043405239],[78.45458065120668,17.206745924513587],[78.45456352141035,17.206658350110516],[78.45440725807245,17.206681589519402],[78.45441936785036,17.20677043405239]]]}},{"type":"Feature","properties":{"fid":45,"sq_yards":"220","plot_no":"041","facing":"E","status":"AVL","per_sq_ft_price":null,"per_sq_yard_price":null},"geometry":{"type":"Polygon","coordinates":[[[78.45446013059728,17.206971209849993],[78.4546214139536,17.20694670031119],[78.45460428415727,17.206859125908117],[78.45444802081937,17.206882365317004],[78.45446013059728,17.206971209849993]]]}},{"type":"Feature","properties":{"fid":46,"sq_yards":"220","plot_no":"043","facing":"E","status":"AVL","per_sq_ft_price":null,"per_sq_yard_price":null},"geometry":{"type":"Polygon","coordinates":[[[78.4544459658451,17.206876822536046],[78.45460039566223,17.20685032790729],[78.45458065120668,17.206745924513584],[78.4544209668331,17.20677304153765],[78.4544459658451,17.206876822536046]]]}},{"type":"Feature","properties":{"fid":47,"sq_yards":"309","plot_no":"055","facing":"S/W","status":"AVL","per_sq_ft_price":null,"per_sq_yard_price":null},"geometry":{"type":"Polygon","coordinates":[[[78.45455789254567,17.206057802079695],[78.4547298603842,17.206024339310943],[78.45470947901075,17.205882578787097],[78.4545368742543,17.20592638462581],[78.45455789254567,17.206057802079695]]]}},{"type":"Feature","properties":{"fid":48,"sq_yards":"309","plot_no":"055","facing":"S/W","status":"SOLD","per_sq_ft_price":null,"per_sq_yard_price":null},"geometry":{"type":"Polygon","coordinates":[[[78.45474165075872,17.20602993504581],[78.45491361859726,17.205996472277057],[78.4548932372238,17.20585471175321],[78.45472063246736,17.205898517591923],[78.45474165075872,17.20602993504581]]]}},{"type":"Feature","properties":{"fid":49,"sq_yards":"267","plot_no":"054","facing":"W","status":"AVL","per_sq_ft_price":null,"per_sq_yard_price":null},"geometry":{"type":"Polygon","coordinates":[[[78.45457763700121,17.206170358621094],[78.45475024175764,17.206138721113668],[78.4547298603842,17.206024339310943],[78.45455789254567,17.20605780207969],[78.45457763700121,17.206170358621094]]]}},{"type":"Feature","properties":{"fid":50,"sq_yards":"267","plot_no":"054","facing":"W","status":"AVL","per_sq_ft_price":null,"per_sq_yard_price":null},"geometry":{"type":"Polygon","coordinates":[[[78.45459669303932,17.206280418056842],[78.45476929779575,17.206248780549416],[78.45474891642232,17.20613439874669],[78.45457694858378,17.20616786151544],[78.45459669303932,17.206280418056842]]]}},{"type":"Feature","properties":{"fid":51,"sq_yards":"267","plot_no":"054","facing":"W","status":"AVL","per_sq_ft_price":null,"per_sq_yard_price":null},"geometry":{"type":"Polygon","coordinates":[[[78.45461574907743,17.20639047749259],[78.45478835383386,17.206358839985164],[78.45476797246043,17.20624445818244],[78.45459600462189,17.206277920951187],[78.45461574907743,17.20639047749259]]]}},{"type":"Feature","properties":{"fid":52,"sq_yards":"267","plot_no":"054","facing":"W","status":"AVL","per_sq_ft_price":null,"per_sq_yard_price":null},"geometry":{"type":"Polygon","coordinates":[[[78.45463480511555,17.20650053692834],[78.45480740987198,17.206468899420912],[78.45478702849854,17.206354517618188],[78.45461506066,17.206387980386936],[78.45463480511555,17.20650053692834]]]}},{"type":"Feature","properties":{"fid":53,"sq_yards":"267","plot_no":"054","facing":"W","status":"SOLD","per_sq_ft_price":null,"per_sq_yard_price":null},"geometry":{"type":"Polygon","coordinates":[[[78.45465386115366,17.206610596364087],[78.45482646591009,17.20657895885666],[78.45480608453666,17.206464577053936],[78.45463411669812,17.206498039822684],[78.45465386115366,17.206610596364087]]]}},{"type":"Feature","properties":{"fid":54,"sq_yards":"267","plot_no":"054","facing":"W","status":"RES","per_sq_ft_price":null,"per_sq_yard_price":null},"geometry":{"type":"Polygon","coordinates":[[[78.45467291719177,17.206720655799835],[78.4548455219482,17.20668901829241],[78.45482514057477,17.206574636489684],[78.45465317273623,17.206608099258432],[78.45467291719177,17.206720655799835]]]}},{"type":"Feature","properties":{"fid":55,"sq_yards":"267","plot_no":"054","facing":"W","status":"AVL","per_sq_ft_price":null,"per_sq_yard_price":null},"geometry":{"type":"Polygon","coordinates":[[[78.45469197322988,17.206830715235583],[78.45486457798631,17.206799077728157],[78.45484419661288,17.206684695925432],[78.45467222877434,17.20671815869418],[78.45469197322988,17.206830715235583]]]}},{"type":"Feature","properties":{"fid":56,"sq_yards":"267","plot_no":"054","facing":"W","status":"AVL","per_sq_ft_price":null,"per_sq_yard_price":null},"geometry":{"type":"Polygon","coordinates":[[[78.454711029268,17.20694077467133],[78.45488363402443,17.206909137163905],[78.454863252651,17.20679475536118],[78.45469128481245,17.206828218129928],[78.454711029268,17.20694077467133]]]}},{"type":"Feature","properties":{"fid":57,"sq_yards":"267","plot_no":"054","facing":"W","status":"AVL","per_sq_ft_price":null,"per_sq_yard_price":null},"geometry":{"type":"Polygon","coordinates":[[[78.45475693678881,17.20614553367787],[78.45492954154524,17.206113896170443],[78.45490916017181,17.20599951436772],[78.45473719233327,17.206032977136466],[78.45475693678881,17.20614553367787]]]}},{"type":"Feature","properties":{"fid":58,"sq_yards":"267","plot_no":"054","facing":"W","status":"AVL","per_sq_ft_price":null,"per_sq_yard_price":null},"geometry":{"type":"Polygon","coordinates":[[[78.45477653256226,17.20625550661526],[78.45494913731869,17.206223869107834],[78.45492875594526,17.20610948730511],[78.45475678810672,17.206142950073858],[78.45477653256226,17.20625550661526]]]}},{"type":"Feature","properties":{"fid":59,"sq_yards":"267","plot_no":"054","facing":"W","status":"AVL","per_sq_ft_price":null,"per_sq_yard_price":null},"geometry":{"type":"Polygon","coordinates":[[[78.45479612833572,17.20636547955265],[78.45496873309214,17.206333842045225],[78.45494835171871,17.2062194602425],[78.45477638388017,17.20625292301125],[78.45479612833572,17.20636547955265]]]}},{"type":"Feature","properties":{"fid":60,"sq_yards":"267","plot_no":"054","facing":"W","status":"AVL","per_sq_ft_price":null,"per_sq_yard_price":null},"geometry":{"type":"Polygon","coordinates":[[[78.45481572410917,17.206475452490043],[78.4549883288656,17.206443814982617],[78.45496794749216,17.206329433179892],[78.45479597965362,17.20636289594864],[78.45481572410917,17.206475452490043]]]}},{"type":"Feature","properties":{"fid":61,"sq_yards":"267","plot_no":"054","facing":"W","status":"RES","per_sq_ft_price":null,"per_sq_yard_price":null},"geometry":{"type":"Polygon","coordinates":[[[78.45483531988262,17.206585425427434],[78.45500792463905,17.206553787920008],[78.45498754326562,17.206439406117283],[78.45481557542708,17.20647286888603],[78.45483531988262,17.206585425427434]]]}},{"type":"Feature","properties":{"fid":62,"sq_yards":"267","plot_no":"054","facing":"W","status":"AVL","per_sq_ft_price":null,"per_sq_yard_price":null},"geometry":{"type":"Polygon","coordinates":[[[78.45485491565607,17.206695398364825],[78.4550275204125,17.2066637608574],[78.45500713903907,17.206549379054675],[78.45483517120053,17.206582841823423],[78.45485491565607,17.206695398364825]]]}},{"type":"Feature","properties":{"fid":63,"sq_yards":"267","plot_no":"054","facing":"W","status":"AVL","per_sq_ft_price":null,"per_sq_yard_price":null},"geometry":{"type":"Polygon","coordinates":[[[78.45487451142952,17.206805371302217],[78.45504711618595,17.20677373379479],[78.45502673481252,17.206659351992066],[78.45485476697398,17.206692814760814],[78.45487451142952,17.206805371302217]]]}},{"type":"Feature","properties":{"fid":64,"sq_yards":"267","plot_no":"054","facing":"W","status":"SOLD","per_sq_ft_price":null,"per_sq_yard_price":null},"geometry":{"type":"Polygon","coordinates":[[[78.45489410720297,17.206915344239608],[78.4550667119594,17.20688370673218],[78.45504633058597,17.206769324929457],[78.45487436274743,17.206802787698205],[78.45489410720297,17.206915344239608]]]}},{"type":"Feature","properties":{"fid":65,"sq_yards":"400","plot_no":"046","facing":"N/W","status":"AVL","per_sq_ft_price":null,"per_sq_yard_price":null},"geometry":{"type":"Polygon","coordinates":[[[78.45475227989499,17.207094901545023],[78.45492170006182,17.207070565122944],[78.45488363402443,17.206909137163898],[78.454711029268,17.206940774671324],[78.45475227989499,17.207094901545023]]]}},{"type":"Feature","properties":{"fid":66,"sq_yards":"400","plot_no":"046","facing":"N/W","status":"AVL","per_sq_ft_price":null,"per_sq_yard_price":null},"geometry":{"type":"Polygon","coordinates":[[[78.45493157968261,17.207074944064164],[78.45510099984944,17.207050607642085],[78.45506293381204,17.20688917968304],[78.45489032905562,17.206920817190465],[78.45493157968261,17.207074944064164]]]}},{"type":"Feature","properties":{"fid":67,"sq_yards":"299","plot_no":"076","facing":"S/W","status":"RES","per_sq_ft_price":null,"per_sq_yard_price":null},"geometry":{"type":"Polygon","coordinates":[[[78.45498202964873,17.205953339538684],[78.4551310684421,17.205922918820924],[78.4551119609045,17.205768381497446],[78.45496292211114,17.205813404195567],[78.45498202964873,17.205953339538684]]]}},{"type":"Feature","properties":{"fid":68,"sq_yards":"328","plot_no":"077","facing":"S/E","status":"RES","per_sq_ft_price":null,"per_sq_yard_price":null},"geometry":{"type":"Polygon","coordinates":[[[78.4551310684421,17.205922918820924],[78.45528138107133,17.20589371492717],[78.45525208284698,17.205717274637657],[78.4551119609045,17.205768381497446],[78.4551310684421,17.205922918820924]]]}},{"type":"Feature","properties":{"fid":69,"sq_yards":"200","plot_no":"075","facing":"W","status":"RES","per_sq_ft_price":null,"per_sq_yard_price":null},"geometry":{"type":"Polygon","coordinates":[[[78.4550001181177,17.206053606189023],[78.45514406156771,17.206032311698653],[78.4551310684421,17.205922918820924],[78.45498826024914,17.20595206779381],[78.4550001181177,17.206053606189023]]]}},{"type":"Feature","properties":{"fid":70,"sq_yards":"200","plot_no":"075","facing":"W","status":"AVL","per_sq_ft_price":null,"per_sq_yard_price":null},"geometry":{"type":"Polygon","coordinates":[[[78.45501668740006,17.206155356073705],[78.45516063085007,17.206134061583334],[78.45514763772447,17.206024668705606],[78.4550048295315,17.20605381767849],[78.45501668740006,17.206155356073705]]]}},{"type":"Feature","properties":{"fid":71,"sq_yards":"200","plot_no":"075","facing":"W","status":"AVL","per_sq_ft_price":null,"per_sq_yard_price":null},"geometry":{"type":"Polygon","coordinates":[[[78.45504471603739,17.20625494332426],[78.4551886594874,17.20623364883389],[78.4551756663618,17.206124255956162],[78.45503285816883,17.206153404929047],[78.45504471603739,17.20625494332426]]]}},{"type":"Feature","properties":{"fid":72,"sq_yards":"200","plot_no":"072","facing":"W","status":"RES","per_sq_ft_price":null,"per_sq_yard_price":null},"geometry":{"type":"Polygon","coordinates":[[[78.4550584546316,17.206348105971543],[78.45520367191746,17.206321335797597],[78.4551886594874,17.206233648833894],[78.45504471603739,17.20625494332426],[78.4550584546316,17.206348105971543]]]}},{"type":"Feature","properties":{"fid":73,"sq_yards":"200","plot_no":"072","facing":"W","status":"AVL","per_sq_ft_price":null,"per_sq_yard_price":null},"geometry":{"type":"Polygon","coordinates":[[[78.45507374066167,17.206445452058453],[78.45521895794754,17.206418681884507],[78.45520394551748,17.206330994920805],[78.45506000206747,17.20635228941117],[78.45507374066167,17.206445452058453]]]}},{"type":"Feature","properties":{"fid":74,"sq_yards":"200","plot_no":"70","facing":"W","status":"RES","per_sq_ft_price":null,"per_sq_yard_price":null},"geometry":{"type":"Polygon","coordinates":[[[78.45511261149183,17.206548715392454],[78.4552527334343,17.206526812546546],[78.45523464496536,17.206421678868555],[78.4550894276795,17.2064484490425],[78.45511261149183,17.206548715392454]]]}},{"type":"Feature","properties":{"fid":75,"sq_yards":"200","plot_no":"70","facing":"W","status":"SOLD","per_sq_ft_price":null,"per_sq_yard_price":null},"geometry":{"type":"Polygon","coordinates":[[[78.4551278975219,17.206650928676424],[78.45526801946438,17.206629025830516],[78.45524993099544,17.206523892152525],[78.45510471370957,17.20655066232647],[78.4551278975219,17.206650928676424]]]}},{"type":"Feature","properties":{"fid":76,"sq_yards":"200","plot_no":"70","facing":"W","status":"AVL","per_sq_ft_price":null,"per_sq_yard_price":null},"geometry":{"type":"Polygon","coordinates":[[[78.45514827889535,17.206750708256315],[78.45528840083783,17.206728805410407],[78.45527031236888,17.206623671732416],[78.45512509508302,17.206650441906362],[78.45514827889535,17.206750708256315]]]}},{"type":"Feature","properties":{"fid":77,"sq_yards":"200","plot_no":"70","facing":"W","status":"RES","per_sq_ft_price":null,"per_sq_yard_price":null},"geometry":{"type":"Polygon","coordinates":[[[78.45516356492544,17.206845620489684],[78.45530368686792,17.206823717643775],[78.45528559839897,17.206718583965785],[78.45514038111311,17.20674535413973],[78.45516356492544,17.206845620489684]]]}},{"type":"Feature","properties":{"fid":78,"sq_yards":"361","plot_no":"066","facing":"N/W","status":"AVL","per_sq_ft_price":null,"per_sq_yard_price":null},"geometry":{"type":"Polygon","coordinates":[[[78.45520456826496,17.20701671911368],[78.45534723787917,17.20699603314594],[78.4553130990786,17.20681472669733],[78.4551739962048,17.20684271354831],[78.45520456826496,17.20701671911368]]]}},{"type":"Feature","properties":{"fid":79,"sq_yards":"361","plot_no":"066","facing":"N/W","status":"AVL","per_sq_ft_price":null,"per_sq_yard_price":null},"geometry":{"type":"Polygon","coordinates":[[[78.45534664814728,17.2069911658446],[78.45548931776149,17.206970479876862],[78.45545517896092,17.206789173428252],[78.45531607608713,17.20681716027923],[78.45534664814728,17.2069911658446]]]}},{"type":"Feature","properties":{"fid":80,"sq_yards":"200","plot_no":"075","facing":"W","status":"AVL","per_sq_ft_price":null,"per_sq_yard_price":null},"geometry":{"type":"Polygon","coordinates":[[[78.45514788307523,17.20602683596107],[78.45529182652524,17.2060055414707],[78.45527883339963,17.20589614859297],[78.45513602520667,17.205925297565855],[78.45514788307523,17.20602683596107]]]}},{"type":"Feature","properties":{"fid":81,"sq_yards":"200","plot_no":"079","facing":"E","status":"AVL","per_sq_ft_price":null,"per_sq_yard_price":null},"geometry":{"type":"Polygon","coordinates":[[[78.45516420700683,17.20612641859029],[78.4553101697614,17.206098872183272],[78.45529870523882,17.20600821850088],[78.45514788307523,17.206026835961065],[78.45516420700683,17.20612641859029]]]}},{"type":"Feature","properties":{"fid":82,"sq_yards":"200","plot_no":"079","facing":"E","status":"AVL","per_sq_ft_price":null,"per_sq_yard_price":null},"geometry":{"type":"Polygon","coordinates":[[[78.45518585704852,17.206224035824132],[78.45533181980309,17.206196489417113],[78.4553203552805,17.20610583573472],[78.45516953311692,17.206124453194906],[78.45518585704852,17.206224035824132]]]}},{"type":"Feature","properties":{"fid":83,"sq_yards":"200","plot_no":"079","facing":"E","status":"AVL","per_sq_ft_price":null,"per_sq_yard_price":null},"geometry":{"type":"Polygon","coordinates":[[[78.45520623842197,17.206321381984928],[78.45535220117654,17.20629383557791],[78.45534073665395,17.206203181895518],[78.45518991449036,17.206221799355703],[78.45520623842197,17.206321381984928]]]}},{"type":"Feature","properties":{"fid":84,"sq_yards":"200","plot_no":"079","facing":"E","status":"AVL","per_sq_ft_price":null,"per_sq_yard_price":null},"geometry":{"type":"Polygon","coordinates":[[[78.45521897678037,17.206421161746594],[78.45536493953495,17.206393615339575],[78.45535347501236,17.206302961657183],[78.45520265284877,17.20632157911737],[78.45521897678037,17.206421161746594]]]}},{"type":"Feature","properties":{"fid":85,"sq_yards":"200","plot_no":"079","facing":"E","status":"RES","per_sq_ft_price":null,"per_sq_yard_price":null},"geometry":{"type":"Polygon","coordinates":[[[78.4552474021566,17.206516637486082],[78.45539336491117,17.206489091079064],[78.45538190038859,17.206398437396672],[78.455231078225,17.206417054856857],[78.4552474021566,17.206516637486082]]]}},{"type":"Feature","properties":{"fid":86,"sq_yards":"200","plot_no":"079","facing":"E","status":"AVL","per_sq_ft_price":null,"per_sq_yard_price":null},"geometry":{"type":"Polygon","coordinates":[[[78.45526778353006,17.206618850793586],[78.45541374628463,17.206591304386567],[78.45540228176205,17.206500650704175],[78.45525145959846,17.20651926816436],[78.45526778353006,17.206618850793586]]]}},{"type":"Feature","properties":{"fid":87,"sq_yards":"200","plot_no":"079","facing":"E","status":"SOLD","per_sq_ft_price":null,"per_sq_yard_price":null},"geometry":{"type":"Polygon","coordinates":[[[78.45528816490352,17.20671863039644],[78.4554341276581,17.206691083989423],[78.45542266313551,17.20660043030703],[78.45527184097192,17.206619047767216],[78.45528816490352,17.20671863039644]]]}},{"type":"Feature","properties":{"fid":88,"sq_yards":"200","plot_no":"079","facing":"E","status":"AVL","per_sq_ft_price":null,"per_sq_yard_price":null},"geometry":{"type":"Polygon","coordinates":[[[78.45530345093361,17.20682084359235],[78.45544941368819,17.20679329718533],[78.4554379491656,17.20670264350294],[78.45528712700201,17.206721260963125],[78.45530345093361,17.20682084359235]]]}},{"type":"Feature","properties":{"fid":89,"sq_yards":"200","plot_no":"097","facing":"W","status":"AVL","per_sq_ft_price":null,"per_sq_yard_price":null},"geometry":{"type":"Polygon","coordinates":[[[78.45538807740864,17.205980975028737],[78.4555358423662,17.205956638458517],[78.45552565167947,17.205849557511495],[78.45536260069184,17.20577168042019],[78.45538807740864,17.205980975028737]]]}},{"type":"Feature","properties":{"fid":90,"sq_yards":"200","plot_no":"096","facing":"W","status":"AVL","per_sq_ft_price":null,"per_sq_yard_price":null},"geometry":{"type":"Polygon","coordinates":[[[78.45540183483573,17.20608331027151],[78.45554832595744,17.20605532323095],[78.4555358423662,17.205956638458517],[78.45538807740864,17.205980975028737],[78.45540183483573,17.20608331027151]]]}},{"type":"Feature","properties":{"fid":91,"sq_yards":"200","plot_no":"096","facing":"W","status":"AVL","per_sq_ft_price":null,"per_sq_yard_price":null},"geometry":{"type":"Polygon","coordinates":[[[78.45541838167897,17.20618506346999],[78.45556487280068,17.20615707642943],[78.45555238920944,17.206058391657],[78.45540462425188,17.20608272822722],[78.45541838167897,17.20618506346999]]]}},{"type":"Feature","properties":{"fid":92,"sq_yards":"200","plot_no":"096","facing":"W","status":"RES","per_sq_ft_price":null,"per_sq_yard_price":null},"geometry":{"type":"Polygon","coordinates":[[[78.45543492852221,17.206286816668474],[78.45558141964392,17.206258829627913],[78.45556893605269,17.20616014485548],[78.45542117109513,17.2061844814257],[78.45543492852221,17.206286816668474]]]}},{"type":"Feature","properties":{"fid":93,"sq_yards":"200","plot_no":"096","facing":"W","status":"RES","per_sq_ft_price":null,"per_sq_yard_price":null},"geometry":{"type":"Polygon","coordinates":[[[78.45545984177495,17.2063825758922],[78.45560633289666,17.20635458885164],[78.45559384930543,17.206255904079207],[78.45544608434787,17.206280240649427],[78.45545984177495,17.2063825758922]]]}},{"type":"Feature","properties":{"fid":94,"sq_yards":"200","plot_no":"096","facing":"W","status":"RES","per_sq_ft_price":null,"per_sq_yard_price":null},"geometry":{"type":"Polygon","coordinates":[[[78.45547767547671,17.20648235561501],[78.45562416659843,17.206454368574448],[78.45561168300719,17.206355683802016],[78.45546391804963,17.206380020372237],[78.45547767547671,17.20648235561501]]]}},{"type":"Feature","properties":{"fid":95,"sq_yards":"200","plot_no":"096","facing":"W","status":"AVL","per_sq_ft_price":null,"per_sq_yard_price":null},"geometry":{"type":"Polygon","coordinates":[[[78.45550315219353,17.206674613953584],[78.45564964331524,17.206646626913024],[78.455637159724,17.206547942140592],[78.45548939476645,17.206572278710812],[78.45550315219353,17.206674613953584]]]}},{"type":"Feature","properties":{"fid":96,"sq_yards":"200","plot_no":"096","facing":"W","status":"AVL","per_sq_ft_price":null,"per_sq_yard_price":null},"geometry":{"type":"Polygon","coordinates":[[[78.45551843822363,17.206771959871606],[78.45566492934535,17.206743972831045],[78.45565244575411,17.206645288058613],[78.45550468079655,17.206669624628834],[78.45551843822363,17.206771959871606]]]}},{"type":"Feature","properties":{"fid":97,"sq_yards":"200","plot_no":"091","facing":"W","status":"SOLD","per_sq_ft_price":null,"per_sq_yard_price":null},"geometry":{"type":"Polygon","coordinates":[[[78.45548939476645,17.20657227871081],[78.455637159724,17.206547942140592],[78.45562416659841,17.206454368574445],[78.45547767547671,17.206482355615012],[78.45548939476645,17.20657227871081]]]}},{"type":"Feature","properties":{"fid":98,"sq_yards":"325","plot_no":"098","facing":"E","status":"AVL","per_sq_ft_price":null,"per_sq_yard_price":null},"geometry":{"type":"Polygon","coordinates":[[[78.45554832595744,17.20605532323095],[78.45569838381947,17.20602745786897],[78.45568309778939,17.20593254525084],[78.4555358423662,17.205956638458517],[78.45554832595744,17.20605532323095]]]}},{"type":"Feature","properties":{"fid":99,"sq_yards":"325","plot_no":"098","facing":"E","status":"AVL","per_sq_ft_price":null,"per_sq_yard_price":null},"geometry":{"type":"Polygon","coordinates":[[[78.45556361198753,17.206152669470367],[78.45571366984956,17.206124804108388],[78.45569838381948,17.206029891490257],[78.4555511283963,17.206053984697935],[78.45556361198753,17.206152669470367]]]}},{"type":"Feature","properties":{"fid":100,"sq_yards":"325","plot_no":"098","facing":"E","status":"AVL","per_sq_ft_price":null,"per_sq_yard_price":null},"geometry":{"type":"Polygon","coordinates":[[[78.45558144568932,17.20625244931261],[78.45573150355135,17.206224583950632],[78.45571621752127,17.2061296713325],[78.45556896209808,17.20615376454018],[78.45558144568932,17.20625244931261]]]}},{"type":"Feature","properties":{"fid":101,"sq_yards":"325","plot_no":"098","facing":"E","status":"AVL","per_sq_ft_price":null,"per_sq_yard_price":null},"geometry":{"type":"Polygon","coordinates":[[[78.45561019347227,17.206341367820787],[78.4557602513343,17.20631350245881],[78.45574496530422,17.206218589840677],[78.45559770988103,17.206242683048355],[78.45561019347227,17.206341367820787]]]}},{"type":"Feature","properties":{"fid":102,"sq_yards":"325","plot_no":"098","facing":"E","status":"AVL","per_sq_ft_price":null,"per_sq_yard_price":null},"geometry":{"type":"Polygon","coordinates":[[[78.45561528881562,17.206443581209495],[78.45576534667765,17.206415715847516],[78.45575006064757,17.206320803229385],[78.45560280522439,17.206344896437063],[78.45561528881562,17.206443581209495]]]}},{"type":"Feature","properties":{"fid":103,"sq_yards":"325","plot_no":"098","facing":"E","status":"SOLD","per_sq_ft_price":null,"per_sq_yard_price":null},"geometry":{"type":"Polygon","coordinates":[[[78.45563567018908,17.206545794541736],[78.45578572805111,17.206517929179757],[78.45577044202103,17.206423016561626],[78.45562318659785,17.206447109769304],[78.45563567018908,17.206545794541736]]]}},{"type":"Feature","properties":{"fid":104,"sq_yards":"325","plot_no":"098","facing":"E","status":"RES","per_sq_ft_price":null,"per_sq_yard_price":null},"geometry":{"type":"Polygon","coordinates":[[[78.45565350389086,17.20664070687111],[78.45580356175289,17.20661284150913],[78.45578827572281,17.206517928891],[78.45564102029962,17.206542022098677],[78.45565350389086,17.20664070687111]]]}},{"type":"Feature","properties":{"fid":105,"sq_yards":"325","plot_no":"098","facing":"E","status":"RES","per_sq_ft_price":null,"per_sq_yard_price":null},"geometry":{"type":"Polygon","coordinates":[[[78.45567133759262,17.20674292009445],[78.45582139545465,17.20671505473247],[78.45580610942457,17.20662014211434],[78.45565885400138,17.206644235322017],[78.45567133759262,17.20674292009445]]]}},{"type":"Feature","properties":{"fid":106,"sq_yards":"203","plot_no":"116","facing":"W","status":"SOLD","per_sq_ft_price":null,"per_sq_yard_price":null},"geometry":{"type":"Polygon","coordinates":[[[78.45580547391198,17.206150412494583],[78.45592139297348,17.20613459373687],[78.45591120228674,17.206045765303042],[78.45578509253852,17.205993441685074],[78.45580547391198,17.206150412494583]]]}},{"type":"Feature","properties":{"fid":107,"sq_yards":"120","plot_no":"115","facing":"W","status":"AVL","per_sq_ft_price":null,"per_sq_yard_price":null},"geometry":{"type":"Polygon","coordinates":[[[78.45581056925532,17.20622707260896],[78.45593158366022,17.206205169722384],[78.45592139297348,17.20613459373687],[78.45580547391198,17.206150412494583],[78.45581056925532,17.20622707260896]]]}},{"type":"Feature","properties":{"fid":108,"sq_yards":"120","plot_no":"115","facing":"W","status":"AVL","per_sq_ft_price":null,"per_sq_yard_price":null},"geometry":{"type":"Polygon","coordinates":[[[78.45581693843452,17.206303732708722],[78.45593795283942,17.206281829822146],[78.45592776215268,17.20621125383663],[78.45581184309118,17.206227072594345],[78.45581693843452,17.206303732708722]]]}},{"type":"Feature","properties":{"fid":109,"sq_yards":"120","plot_no":"115","facing":"W","status":"AVL","per_sq_ft_price":null,"per_sq_yard_price":null},"geometry":{"type":"Polygon","coordinates":[[[78.45583222446463,17.206375525471763],[78.45595323886953,17.206353622585187],[78.45594304818279,17.206283046599673],[78.45582712912129,17.206298865357386],[78.45583222446463,17.206375525471763]]]}},{"type":"Feature","properties":{"fid":110,"sq_yards":"120","plot_no":"115","facing":"W","status":"RES","per_sq_ft_price":null,"per_sq_yard_price":null},"geometry":{"type":"Polygon","coordinates":[[[78.45584241515134,17.206448535032727],[78.45596342955623,17.20642663214615],[78.4559532388695,17.206356056160637],[78.455837319808,17.20637187491835],[78.45584241515134,17.206448535032727]]]}},{"type":"Feature","properties":{"fid":111,"sq_yards":"120","plot_no":"115","facing":"W","status":"RES","per_sq_ft_price":null,"per_sq_yard_price":null},"geometry":{"type":"Polygon","coordinates":[[[78.45585735204219,17.20652168578545],[78.45597836644708,17.206499782898874],[78.45596817576035,17.20642920691336],[78.45585225669885,17.206445025671073],[78.45585735204219,17.20652168578545]]]}},{"type":"Feature","properties":{"fid":112,"sq_yards":"120","plot_no":"115","facing":"W","status":"RES","per_sq_ft_price":null,"per_sq_yard_price":null},"geometry":{"type":"Polygon","coordinates":[[[78.45587172593366,17.206589136983798],[78.45599274033856,17.20656723409722],[78.45598254965182,17.206496658111707],[78.45586663059032,17.20651247686942],[78.45587172593366,17.206589136983798]]]}},{"type":"Feature","properties":{"fid":113,"sq_yards":"120","plot_no":"115","facing":"W","status":"AVL","per_sq_ft_price":null,"per_sq_yard_price":null},"geometry":{"type":"Polygon","coordinates":[[[78.45588701196377,17.206664580104302],[78.45600802636866,17.206642677217726],[78.45599783568193,17.20657210123221],[78.45588191662043,17.206587919989925],[78.45588701196377,17.206664580104302]]]}},{"type":"Feature","properties":{"fid":114,"sq_yards":"120","plot_no":"115","facing":"W","status":"AVL","per_sq_ft_price":null,"per_sq_yard_price":null},"geometry":{"type":"Polygon","coordinates":[[[78.45589720265049,17.20673272225123],[78.45601821705539,17.206710819364652],[78.45600802636865,17.206640243379137],[78.45589210730715,17.20665606213685],[78.45589720265049,17.20673272225123]]]}},{"type":"Feature","properties":{"fid":115,"sq_yards":"188","plot_no":"117","facing":"E","status":"AVL","per_sq_ft_price":null,"per_sq_yard_price":null},"geometry":{"type":"Polygon","coordinates":[[[78.45593158366022,17.206205169722384],[78.4560469931874,17.206182536736858],[78.45603680250068,17.206103442948493],[78.45591120228674,17.206045765303042],[78.45593158366022,17.206205169722384]]]}},{"type":"Feature","properties":{"fid":116,"sq_yards":"120","plot_no":"115","facing":"W","status":"AVL","per_sq_ft_price":null,"per_sq_yard_price":null},"geometry":{"type":"Polygon","coordinates":[[[78.45593922667526,17.20627939617057],[78.45606024108015,17.206257493283992],[78.45605005039342,17.206186917298478],[78.45593413133192,17.20620273605619],[78.45593922667526,17.20627939617057]]]}},{"type":"Feature","properties":{"fid":117,"sq_yards":"120","plot_no":"115","facing":"W","status":"AVL","per_sq_ft_price":null,"per_sq_yard_price":null},"geometry":{"type":"Polygon","coordinates":[[[78.45594941736196,17.206352405775423],[78.45607043176686,17.206330502888846],[78.45606024108012,17.206259926903332],[78.45594432201862,17.206275745661046],[78.45594941736196,17.206352405775423]]]}},{"type":"Feature","properties":{"fid":118,"sq_yards":"120","plot_no":"115","facing":"W","status":"RES","per_sq_ft_price":null,"per_sq_yard_price":null},"geometry":{"type":"Polygon","coordinates":[[[78.4559621557204,17.206425415351458],[78.4560831701253,17.20640351246488],[78.45607297943856,17.206332936479367],[78.45595706037706,17.20634875523708],[78.4559621557204,17.206425415351458]]]}},{"type":"Feature","properties":{"fid":119,"sq_yards":"120","plot_no":"115","facing":"W","status":"AVL","per_sq_ft_price":null,"per_sq_yard_price":null},"geometry":{"type":"Polygon","coordinates":[[[78.4559748940788,17.206498424898687],[78.4560959084837,17.20647652201211],[78.45608571779697,17.206405946026596],[78.45596979873547,17.20642176478431],[78.4559748940788,17.206498424898687]]]}},{"type":"Feature","properties":{"fid":120,"sq_yards":"120","plot_no":"115","facing":"W","status":"SOLD","per_sq_ft_price":null,"per_sq_yard_price":null},"geometry":{"type":"Polygon","coordinates":[[[78.4559907022012,17.20656407041399],[78.4561117166061,17.206542167527413],[78.45610152591937,17.2064715915419],[78.45598560685787,17.206487410299612],[78.4559907022012,17.20656407041399]]]}},{"type":"Feature","properties":{"fid":121,"sq_yards":"120","plot_no":"115","facing":"W","status":"SOLD","per_sq_ft_price":null,"per_sq_yard_price":null},"geometry":{"type":"Polygon","coordinates":[[[78.45600216672376,17.206637079901775],[78.45612318112866,17.2066151770152],[78.45611299044192,17.206544601029684],[78.45599707138042,17.206560419787397],[78.45600216672376,17.206637079901775]]]}},{"type":"Feature","properties":{"fid":122,"sq_yards":"120","plot_no":"115","facing":"W","status":"AVL","per_sq_ft_price":null,"per_sq_yard_price":null},"geometry":{"type":"Polygon","coordinates":[[[78.45601745275385,17.20670887253667],[78.45613846715875,17.206686969650093],[78.45612827647201,17.20661639366458],[78.45601235741051,17.206632212422292],[78.45601745275385,17.20670887253667]]]}},{"type":"Feature","properties":{"fid":123,"sq_yards":null,"plot_no":"088","facing":null,"status":"RES","per_sq_ft_price":null,"per_sq_yard_price":null},"geometry":{"type":"Polygon","coordinates":[[[78.45556102340882,17.206947467780477],[78.4556985976796,17.206927998626888],[78.45567133759262,17.20674292009445],[78.45551843822363,17.206771959871606],[78.45556102340882,17.206947467780477]]]}},{"type":"Feature","properties":{"fid":124,"sq_yards":null,"plot_no":"106","facing":null,"status":"AVL","per_sq_ft_price":null,"per_sq_yard_price":null},"geometry":{"type":"Polygon","coordinates":[[[78.4556985976796,17.206927998626888],[78.45584381496548,17.20689757807029],[78.45582139545465,17.20671505473247],[78.45567133759262,17.20674292009445],[78.4556985976796,17.206927998626888]]]}},{"type":"Feature","properties":{"fid":125,"sq_yards":null,"plot_no":"107","facing":null,"status":"RES","per_sq_ft_price":null,"per_sq_yard_price":null},"geometry":{"type":"Polygon","coordinates":[[[78.4559331248212,17.206893342775146],[78.45604777004688,17.206876307259375],[78.45601821705539,17.206710819364652],[78.45589720265049,17.20673272225123],[78.4559331248212,17.206893342775146]]]}},{"type":"Feature","properties":{"fid":126,"sq_yards":null,"plot_no":"125","facing":null,"status":"AVL","per_sq_ft_price":null,"per_sq_yard_price":null},"geometry":{"type":"Polygon","coordinates":[[[78.45604777004688,17.206876307259378],[78.45615859376504,17.206851970805534],[78.45613846715874,17.206686969650097],[78.45601821705539,17.206710819364652],[78.45604777004688,17.206876307259378]]]}},{"type":"Feature","properties":{"fid":127,"sq_yards":null,"plot_no":"126","facing":null,"status":"RES","per_sq_ft_price":null,"per_sq_yard_price":null},"geometry":{"type":"Polygon","coordinates":[[[78.45625839970204,17.20681487278536],[78.4564010693162,17.206789319501933],[78.45638196177859,17.20665060161601],[78.45623801832858,17.206681022213925],[78.45625839970204,17.20681487278536]]]}},{"type":"Feature","properties":{"fid":128,"sq_yards":null,"plot_no":"126","facing":null,"status":"RES","per_sq_ft_price":null,"per_sq_yard_price":null},"geometry":{"type":"Polygon","coordinates":[[[78.45640106931621,17.20678566902317],[78.45656772755109,17.206759112164416],[78.4565446144275,17.206618611545117],[78.45638068794275,17.206651818451736],[78.45640106931621,17.20678566902317]]]}},{"type":"Feature","properties":{"fid":129,"sq_yards":null,"plot_no":"127","facing":null,"status":"AVL","per_sq_ft_price":null,"per_sq_yard_price":null},"geometry":{"type":"Polygon","coordinates":[[[78.45623801832858,17.206681022213925],[78.45638196177859,17.20665060161601],[78.45636285424098,17.206531352823916],[78.45621891079097,17.206558122967603],[78.45623801832858,17.206681022213925]]]}},{"type":"Feature","properties":{"fid":130,"sq_yards":null,"plot_no":"130","facing":null,"status":"AVL","per_sq_ft_price":null,"per_sq_yard_price":null},"geometry":{"type":"Polygon","coordinates":[[[78.45638196177859,17.20665060161601],[78.4565446144275,17.206618611545117],[78.45653761045065,17.20656676009914],[78.4565253534912,17.206499854986077],[78.45636285424098,17.206531352823916],[78.45638196177859,17.20665060161601]]]}},{"type":"Feature","properties":{"fid":131,"sq_yards":null,"plot_no":"128","facing":null,"status":"RES","per_sq_ft_price":null,"per_sq_yard_price":null},"geometry":{"type":"Polygon","coordinates":[[[78.45621891079097,17.206558122967603],[78.45636285424098,17.206531352823916],[78.45633124684132,17.20641248867025],[78.45618169618362,17.206427885533497],[78.45621891079097,17.206558122967603]]]}},{"type":"Feature","properties":{"fid":132,"sq_yards":null,"plot_no":"129","facing":null,"status":"AVL","per_sq_ft_price":null,"per_sq_yard_price":null},"geometry":{"type":"Polygon","coordinates":[[[78.45636285424098,17.206531352823916],[78.4565253534912,17.206499854986077],[78.45649119214181,17.206387006416065],[78.45633124684132,17.20641248867025],[78.45636285424098,17.206531352823916]]]}},{"type":"Feature","properties":{"fid":133,"sq_yards":null,"plot_no":"S2","facing":null,"status":"AVL","per_sq_ft_price":null,"per_sq_yard_price":null},"geometry":{"type":"Polygon","coordinates":[[[78.45618169618362,17.206427885533497],[78.45633124684132,17.20641248867025],[78.45649119214181,17.206387006416065],[78.45643115000284,17.20629579424182],[78.45612647701068,17.206158638533143],[78.45618169618362,17.206427885533497]]]}},{"type":"Feature","properties":{"fid":134,"sq_yards":null,"plot_no":"OC","facing":null,"status":"SOLD","per_sq_ft_price":null,"per_sq_yard_price":null},"geometry":{"type":"Polygon","coordinates":[[[78.45656002317654,17.206357347014613],[78.45664582189272,17.20675710501347],[78.45717976400334,17.206658081762065],[78.45656002317654,17.206357347014613]]]}},{"type":"Feature","properties":{"fid":135,"sq_yards":null,"plot_no":"OB","facing":null,"status":"AVL","per_sq_ft_price":null,"per_sq_yard_price":null},"geometry":{"type":"Polygon","coordinates":[[[78.45719497357486,17.207023184795357],[78.45769431722442,17.20688690073743],[78.45731980948723,17.20669220905196],[78.45714656781287,17.206733581052262],[78.45719497357486,17.207023184795357]]]}},{"type":"Feature","properties":{"fid":136,"sq_yards":null,"plot_no":"OA","facing":null,"status":"AVL","per_sq_ft_price":null,"per_sq_yard_price":null},"geometry":{"type":"Polygon","coordinates":[[[78.45400789106012,17.207846205693933],[78.4541110232244,17.207826502543323],[78.45508288446278,17.20830394288989],[78.45510389639327,17.20874551188299],[78.4547334024029,17.208813364297317],[78.45466264585288,17.20858494146199],[78.45400789106012,17.207846205693933]]]}},{"type":"Feature","properties":{"fid":137,"sq_yards":null,"plot_no":"S1","facing":null,"status":"AVL","per_sq_ft_price":null,"per_sq_yard_price":null},"geometry":{"type":"Polygon","coordinates":[[[78.45357677647286,17.20963005894566],[78.45369269553434,17.209621541314053],[78.45380351925253,17.210008484754002],[78.45400733298705,17.2099853655146],[78.45402644052466,17.210081492859448],[78.45343410685868,17.210070541645464],[78.45357677647286,17.20963005894566]]]}},{"type":"Feature","properties":{"fid":138,"sq_yards":null,"plot_no":"207","facing":null,"status":"AVL","per_sq_ft_price":null,"per_sq_yard_price":null},"geometry":{"type":"Polygon","coordinates":[[[78.45380351925253,17.210008484754002],[78.45400733298705,17.2099853655146],[78.45397370372086,17.20987122943775],[78.45377008830263,17.209891759945318],[78.45380351925253,17.210008484754002]]]}},{"type":"Feature","properties":{"fid":139,"sq_yards":null,"plot_no":"206","facing":null,"status":"AVL","per_sq_ft_price":null,"per_sq_yard_price":null},"geometry":{"type":"Polygon","coordinates":[[[78.4537422561972,17.20979458355426],[78.45394695316821,17.209772668376548],[78.45397370372086,17.20987122943775],[78.45377008830263,17.209891759945318],[78.4537422561972,17.20979458355426]]]}},{"type":"Feature","properties":{"fid":140,"sq_yards":null,"plot_no":"205","facing":null,"status":"AVL","per_sq_ft_price":null,"per_sq_yard_price":null},"geometry":{"type":"Polygon","coordinates":[[[78.4537422561972,17.20979458355426],[78.45394695316821,17.209772668376548],[78.45391765494388,17.209676540871218],[78.4537171372556,17.20970688018883],[78.4537422561972,17.20979458355426]]]}},{"type":"Feature","properties":{"fid":141,"sq_yards":null,"plot_no":"204","facing":null,"status":"AVL","per_sq_ft_price":null,"per_sq_yard_price":null},"geometry":{"type":"Polygon","coordinates":[[[78.45369269553434,17.209621541314053],[78.45389854740625,17.20959623177783],[78.45391765494388,17.209676540871218],[78.4537171372556,17.209706880188822],[78.45369269553434,17.209621541314053]]]}},{"type":"Feature","properties":{"fid":142,"sq_yards":null,"plot_no":"202","facing":null,"status":"AVL","per_sq_ft_price":null,"per_sq_yard_price":null},"geometry":{"type":"Polygon","coordinates":[[[78.45361830352128,17.209502537791476],[78.45386288000272,17.20947211765583],[78.45382262679014,17.209347760089294],[78.45365957580252,17.209368445795985],[78.45361830352128,17.209502537791476]]]}},{"type":"Feature","properties":{"fid":143,"sq_yards":null,"plot_no":"203","facing":null,"status":"AVL","per_sq_ft_price":null,"per_sq_yard_price":null},"geometry":{"type":"Polygon","coordinates":[[[78.45357677647286,17.20963005894566],[78.45389854740625,17.20959623177783],[78.45386288000272,17.20947211765583],[78.45361830352128,17.209502537791476],[78.45357677647286,17.20963005894566]]]}},{"type":"Feature","properties":{"fid":144,"sq_yards":null,"plot_no":"185","facing":null,"status":"AVL","per_sq_ft_price":null,"per_sq_yard_price":null},"geometry":{"type":"Polygon","coordinates":[[[78.45358217828205,17.207524817521556],[78.45379490886748,17.207494397062966],[78.45377452749405,17.207387317008934],[78.45356561841612,17.207423821579766],[78.45358217828205,17.207524817521556]]]}},{"type":"Feature","properties":{"fid":145,"sq_yards":null,"plot_no":"185","facing":null,"status":"AVL","per_sq_ft_price":null,"per_sq_yard_price":null},"geometry":{"type":"Polygon","coordinates":[[[78.4536074777255,17.2076337220954],[78.45382020831093,17.207603301636812],[78.4537998269375,17.20749622158278],[78.45359091785957,17.207532726153612],[78.4536074777255,17.2076337220954]]]}},{"type":"Feature","properties":{"fid":146,"sq_yards":null,"plot_no":"185","facing":null,"status":"AVL","per_sq_ft_price":null,"per_sq_yard_price":null},"geometry":{"type":"Polygon","coordinates":[[[78.45363040677063,17.20774080205731],[78.45384313735606,17.20771038159872],[78.45382275598263,17.207603301544687],[78.4536138469047,17.20763980611552],[78.45363040677063,17.20774080205731]]]}},{"type":"Feature","properties":{"fid":147,"sq_yards":null,"plot_no":"188","facing":null,"status":"AVL","per_sq_ft_price":null,"per_sq_yard_price":null},"geometry":{"type":"Polygon","coordinates":[[[78.45367771597013,17.20790616796604],[78.45388280354051,17.207875747570156],[78.45384313735605,17.207710381598716],[78.45363040677061,17.207740802057305],[78.45367771597013,17.20790616796604]]]}},{"type":"Feature","properties":{"fid":148,"sq_yards":null,"plot_no":"189","facing":null,"status":"AVL","per_sq_ft_price":null,"per_sq_yard_price":null},"geometry":{"type":"Polygon","coordinates":[[[78.4537844870628,17.208054164348173],[78.45391823982608,17.207949518254818],[78.4538558218699,17.20786555797433],[78.45365073429952,17.207895978370214],[78.4537844870628,17.208054164348173]]]}},{"type":"Feature","properties":{"fid":149,"sq_yards":null,"plot_no":"190","facing":null,"status":"RES","per_sq_ft_price":null,"per_sq_yard_price":null},"geometry":{"type":"Polygon","coordinates":[[[78.45388053428518,17.208162217461528],[78.45401428704845,17.20806365550255],[78.45391823982608,17.207949518254814],[78.4537844870628,17.20805416434817],[78.45388053428518,17.208162217461528]]]}},{"type":"Feature","properties":{"fid":150,"sq_yards":null,"plot_no":"190","facing":null,"status":"SOLD","per_sq_ft_price":null,"per_sq_yard_price":null},"geometry":{"type":"Polygon","coordinates":[[[78.45397607197323,17.208272947538095],[78.4541098247365,17.208174385579117],[78.45401377751413,17.208060248331382],[78.45388002475086,17.208164894424737],[78.45397607197323,17.208272947538095]]]}},{"type":"Feature","properties":{"fid":151,"sq_yards":null,"plot_no":"190","facing":null,"status":"RES","per_sq_ft_price":null,"per_sq_yard_price":null},"geometry":{"type":"Polygon","coordinates":[[[78.45407415733298,17.208384894361316],[78.45420791009626,17.208286332402338],[78.45411186287389,17.208172195154603],[78.45397811011061,17.208276841247958],[78.45407415733298,17.208384894361316]]]}},{"type":"Feature","properties":{"fid":152,"sq_yards":null,"plot_no":"190","facing":null,"status":"RES","per_sq_ft_price":null,"per_sq_yard_price":null},"geometry":{"type":"Polygon","coordinates":[[[78.45416842118522,17.208494407492395],[78.45430217394849,17.208395845533417],[78.45420612672612,17.208281708285682],[78.45407237396284,17.208386354379037],[78.45416842118522,17.208494407492395]]]}},{"type":"Feature","properties":{"fid":153,"sq_yards":null,"plot_no":"190","facing":null,"status":"RES","per_sq_ft_price":null,"per_sq_yard_price":null},"geometry":{"type":"Polygon","coordinates":[[[78.45425758969407,17.20860927452911],[78.45439134245734,17.20851071257013],[78.45429529523497,17.208396575322396],[78.4541615424717,17.20850122141575],[78.45425758969407,17.20860927452911]]]}},{"type":"Feature","properties":{"fid":154,"sq_yards":null,"plot_no":"190","facing":null,"status":"AVL","per_sq_ft_price":null,"per_sq_yard_price":null},"geometry":{"type":"Polygon","coordinates":[[[78.45434930587462,17.20871246011145],[78.45448305863789,17.20861389815247],[78.45438701141552,17.208499760904736],[78.45425325865224,17.20860440699809],[78.45434930587462,17.20871246011145]]]}},{"type":"Feature","properties":{"fid":155,"sq_yards":null,"plot_no":"196","facing":null,"status":"AVL","per_sq_ft_price":null,"per_sq_yard_price":null},"geometry":{"type":"Polygon","coordinates":[[[78.4543493058746,17.20871246011145],[78.45448305863788,17.208613898152468],[78.45457579388709,17.208729738633235],[78.45444458879547,17.20882099937958],[78.4543493058746,17.20871246011145]]]}},{"type":"Feature","properties":{"fid":156,"sq_yards":null,"plot_no":"197","facing":null,"status":"AVL","per_sq_ft_price":null,"per_sq_yard_price":null},"geometry":{"type":"Polygon","coordinates":[[[78.45456853278108,17.208750529010597],[78.45462076005056,17.20895982025543],[78.45442713700272,17.208985373240036],[78.45439656494257,17.20887707723345],[78.45456853278108,17.208750529010597]]]}},{"type":"Feature","properties":{"fid":157,"sq_yards":null,"plot_no":"198","facing":null,"status":"RES","per_sq_ft_price":null,"per_sq_yard_price":null},"geometry":{"type":"Polygon","coordinates":[[[78.45442713700272,17.208985373240036],[78.45446917358551,17.209149642342485],[78.45465770128995,17.20911557172582],[78.45462076005056,17.20895982025543],[78.45442713700272,17.208985373240036]]]}},{"type":"Feature","properties":{"fid":158,"sq_yards":null,"plot_no":"199","facing":null,"status":"AVL","per_sq_ft_price":null,"per_sq_yard_price":null},"geometry":{"type":"Polygon","coordinates":[[[78.45428064588104,17.208976855578893],[78.45432905164299,17.20917154487846],[78.45446917358551,17.209149642342485],[78.45439656494257,17.20887707723345],[78.45428064588104,17.208976855578893]]]}},{"type":"Feature","properties":{"fid":159,"sq_yards":null,"plot_no":"200","facing":null,"status":"AVL","per_sq_ft_price":null,"per_sq_yard_price":null},"geometry":{"type":"Polygon","coordinates":[[[78.45418383435715,17.209057164939793],[78.45421695408902,17.209188580182428],[78.45432905164299,17.20917154487846],[78.45428064588104,17.208976855578893],[78.45418383435715,17.209057164939793]]]}},{"type":"Feature","properties":{"fid":160,"sq_yards":null,"plot_no":"201","facing":null,"status":"RES","per_sq_ft_price":null,"per_sq_yard_price":null},"geometry":{"type":"Polygon","coordinates":[[[78.45418383435715,17.209057164939793],[78.45408192748987,17.209122872572774],[78.45409848735581,17.209209265906555],[78.45421695408902,17.209188580182428],[78.45418383435715,17.209057164939793]]]}},{"type":"Feature","properties":{"fid":161,"sq_yards":null,"plot_no":"ut2","facing":null,"status":"SOLD","per_sq_ft_price":null,"per_sq_yard_price":null},"geometry":{"type":"Polygon","coordinates":[[[78.45408192748987,17.209122872572774],[78.4539504676311,17.209224597677068],[78.45409848735581,17.209209265906555],[78.45408192748987,17.209122872572774]]]}},{"type":"Feature","properties":{"fid":162,"sq_yards":null,"plot_no":"238","facing":null,"status":"AVL","per_sq_ft_price":null,"per_sq_yard_price":null},"geometry":{"type":"Polygon","coordinates":[[[78.45487773740324,17.20877625373293],[78.45493928471346,17.20905703363268],[78.45479018855711,17.209089536030582],[78.4547334024029,17.208813364297317],[78.45487773740324,17.20877625373293]]]}},{"type":"Feature","properties":{"fid":163,"sq_yards":null,"plot_no":"239","facing":null,"status":"AVL","per_sq_ft_price":null,"per_sq_yard_price":null},"geometry":{"type":"Polygon","coordinates":[[[78.45494278670188,17.2090670692761],[78.45510739838168,17.209036545415806],[78.4551109003701,17.208916117802588],[78.45510389639327,17.20874551188299],[78.45487773740324,17.20877625373293],[78.45494278670188,17.2090670692761]]]}},{"type":"Feature","properties":{"fid":164,"sq_yards":null,"plot_no":"237","facing":null,"status":"SOLD","per_sq_ft_price":null,"per_sq_yard_price":null},"geometry":{"type":"Polygon","coordinates":[[[78.45506385243337,17.209163778878622],[78.45506640010505,17.20932804782548],[78.4548154544444,17.20936455201607],[78.45477851320501,17.209208800752645],[78.45506385243337,17.209163778878622]]]}},{"type":"Feature","properties":{"fid":165,"sq_yards":null,"plot_no":"236","facing":null,"status":"AVL","per_sq_ft_price":null,"per_sq_yard_price":null},"geometry":{"type":"Polygon","coordinates":[[[78.45506640010505,17.20932804782548],[78.45507913846346,17.209503267874677],[78.45485749102716,17.20953247120007],[78.4548154544444,17.20936455201607],[78.45506640010505,17.20932804782548]]]}},{"type":"Feature","properties":{"fid":166,"sq_yards":null,"plot_no":"235","facing":null,"status":"AVL","per_sq_ft_price":null,"per_sq_yard_price":null},"geometry":{"type":"Polygon","coordinates":[[[78.45507913846346,17.209503267874677],[78.45508805531433,17.20966631971581],[78.45489825377408,17.209694306211414],[78.45485749102716,17.20953247120007],[78.45507913846346,17.209503267874677]]]}},{"type":"Feature","properties":{"fid":167,"sq_yards":null,"plot_no":"234","facing":null,"status":"AVL","per_sq_ft_price":null,"per_sq_yard_price":null},"geometry":{"type":"Polygon","coordinates":[[[78.45489825377408,17.209694306211414],[78.45508805531433,17.20966631971581],[78.45511123912665,17.209949591527938],[78.45497366485584,17.209972710771808],[78.45489825377408,17.209694306211414]]]}},{"type":"Feature","properties":{"fid":168,"sq_yards":null,"plot_no":"228","facing":null,"status":"SOLD","per_sq_ft_price":null,"per_sq_yard_price":null},"geometry":{"type":"Polygon","coordinates":[[[78.45467940877661,17.209393512002162],[78.45463609835801,17.209228026306313],[78.45446769725984,17.209254552699875],[78.4545122815143,17.20941638795435],[78.45467940877661,17.209393512002162]]]}},{"type":"Feature","properties":{"fid":169,"sq_yards":null,"plot_no":"227","facing":null,"status":"AVL","per_sq_ft_price":null,"per_sq_yard_price":null},"geometry":{"type":"Polygon","coordinates":[[[78.45434668285499,17.20943707365337],[78.4545122815143,17.20941638795435],[78.45446769725984,17.209254552699875],[78.45431101545145,17.209277672030613],[78.45434668285499,17.20943707365337]]]}},{"type":"Feature","properties":{"fid":170,"sq_yards":"226","plot_no":null,"facing":null,"status":"AVL","per_sq_ft_price":null,"per_sq_yard_price":null},"geometry":{"type":"Polygon","coordinates":[[[78.4545122815143,17.20941638795435],[78.45453903206692,17.209528334062583],[78.45437343340762,17.20954901974908],[78.45434668285499,17.20943707365337],[78.4545122815143,17.20941638795435]]]}},{"type":"Feature","properties":{"fid":171,"sq_yards":null,"plot_no":"229","facing":null,"status":"RES","per_sq_ft_price":null,"per_sq_yard_price":null},"geometry":{"type":"Polygon","coordinates":[[[78.45453903206692,17.209528334062583],[78.45470590456208,17.209500347541876],[78.45467940877661,17.209393512002162],[78.4545122815143,17.20941638795435],[78.45453903206692,17.209528334062583]]]}},{"type":"Feature","properties":{"fid":172,"sq_yards":null,"plot_no":"230","facing":null,"status":"AVL","per_sq_ft_price":null,"per_sq_yard_price":null},"geometry":{"type":"Polygon","coordinates":[[[78.45457087796296,17.2096329792764],[78.45453903206692,17.209528334062583],[78.45470590456208,17.209500347541876],[78.45473138127892,17.209608643185444],[78.45457087796296,17.2096329792764]]]}},{"type":"Feature","properties":{"fid":173,"sq_yards":null,"plot_no":"225","facing":null,"status":"AVL","per_sq_ft_price":null,"per_sq_yard_price":null},"geometry":{"type":"Polygon","coordinates":[[[78.45440400546782,17.209656098559847],[78.45457087796296,17.2096329792764],[78.45453903206692,17.209528334062583],[78.45437343340762,17.20954901974908],[78.45440400546782,17.209656098559847]]]}},{"type":"Feature","properties":{"fid":174,"sq_yards":null,"plot_no":"231","facing":null,"status":"SOLD","per_sq_ft_price":null,"per_sq_yard_price":null},"geometry":{"type":"Polygon","coordinates":[[[78.45459890235148,17.209742491646075],[78.45476577484662,17.209718155569526],[78.45473138127892,17.209608643185444],[78.45457087796296,17.2096329792764],[78.45459890235148,17.209742491646075]]]}},{"type":"Feature","properties":{"fid":175,"sq_yards":null,"plot_no":"224","facing":null,"status":"AVL","per_sq_ft_price":null,"per_sq_yard_price":null},"geometry":{"type":"Polygon","coordinates":[[[78.45443585136384,17.209765610915834],[78.45459890235148,17.209742491646075],[78.45457087796296,17.2096329792764],[78.45440400546782,17.209656098559847],[78.45443585136384,17.209765610915834]]]}},{"type":"Feature","properties":{"fid":176,"sq_yards":null,"plot_no":"223","facing":null,"status":"SOLD","per_sq_ft_price":null,"per_sq_yard_price":null},"geometry":{"type":"Polygon","coordinates":[[[78.45446514958816,17.209875123206988],[78.45462692673998,17.209852003950918],[78.45459890235148,17.209742491646075],[78.45443585136384,17.209765610915834],[78.45446514958816,17.209875123206988]]]}},{"type":"Feature","properties":{"fid":177,"sq_yards":null,"plot_no":"232","facing":null,"status":"AVL","per_sq_ft_price":null,"per_sq_yard_price":null},"geometry":{"type":"Polygon","coordinates":[[[78.45462692673998,17.209852003950918],[78.45479507307095,17.209824017479185],[78.45476577484662,17.209718155569526],[78.45459890235148,17.209742491646075],[78.45462692673998,17.209852003950918]]]}},{"type":"Feature","properties":{"fid":178,"sq_yards":null,"plot_no":"222","facing":null,"status":"SOLD","per_sq_ft_price":null,"per_sq_yard_price":null},"geometry":{"type":"Polygon","coordinates":[[[78.45462692673998,17.209852003950918],[78.45467737063925,17.210036227837463],[78.45451686732329,17.210062997475458],[78.45446514958816,17.209875123206988],[78.45462692673998,17.209852003950918]]]}},{"type":"Feature","properties":{"fid":179,"sq_yards":null,"plot_no":"233","facing":null,"status":"RES","per_sq_ft_price":null,"per_sq_yard_price":null},"geometry":{"type":"Polygon","coordinates":[[[78.45467737063925,17.210036227837463],[78.45484551697025,17.210000940581462],[78.45479507307095,17.209824017479185],[78.45462692673998,17.209852003950918],[78.45467737063925,17.210036227837463]]]}},{"type":"Feature","properties":{"fid":180,"sq_yards":null,"plot_no":"214","facing":null,"status":"AVL","per_sq_ft_price":null,"per_sq_yard_price":null},"geometry":{"type":"Polygon","coordinates":[[[78.45407917732842,17.209314662953783],[78.45411484473196,17.20944729482144],[78.4539696274461,17.209467980516994],[78.45394160305761,17.2093304814384],[78.45407917732842,17.209314662953783]]]}},{"type":"Feature","properties":{"fid":181,"sq_yards":null,"plot_no":"215","facing":null,"status":"SOLD","per_sq_ft_price":null,"per_sq_yard_price":null},"geometry":{"type":"Polygon","coordinates":[[[78.45411484473196,17.20944729482144],[78.45425114516692,17.20943025954101],[78.45421420392753,17.20929641085446],[78.45407917732842,17.209314662953783],[78.45411484473196,17.20944729482144]]]}},{"type":"Feature","properties":{"fid":182,"sq_yards":null,"plot_no":"218","facing":null,"status":"AVL","per_sq_ft_price":null,"per_sq_yard_price":null},"geometry":{"type":"Polygon","coordinates":[[[78.45425114516692,17.20943025954101],[78.45427662188374,17.20952638717432],[78.4541415952846,17.209543422445893],[78.45411484473196,17.20944729482144],[78.45425114516692,17.20943025954101]]]}},{"type":"Feature","properties":{"fid":183,"sq_yards":null,"plot_no":"213","facing":null,"status":"SOLD","per_sq_ft_price":null,"per_sq_yard_price":null},"geometry":{"type":"Polygon","coordinates":[[[78.4541415952846,17.209543422445893],[78.45400274717797,17.209560457715913],[78.4539696274461,17.209467980516987],[78.45411484473196,17.20944729482144],[78.4541415952846,17.209543422445893]]]}},{"type":"Feature","properties":{"fid":184,"sq_yards":null,"plot_no":"217","facing":null,"status":"AVL","per_sq_ft_price":null,"per_sq_yard_price":null},"geometry":{"type":"Polygon","coordinates":[[[78.45427662188374,17.20952638717432],[78.45430209860055,17.209626165171255],[78.45416452432973,17.209638333215985],[78.4541415952846,17.209543422445893],[78.45427662188374,17.20952638717432]]]}},{"type":"Feature","properties":{"fid":185,"sq_yards":null,"plot_no":"212","facing":null,"status":"AVL","per_sq_ft_price":null,"per_sq_yard_price":null},"geometry":{"type":"Polygon","coordinates":[[[78.45416452432973,17.209638333215985],[78.45402440238723,17.209655368477254],[78.45400274717797,17.209560457715913],[78.4541415952846,17.209543422445893],[78.45416452432973,17.209638333215985]]]}},{"type":"Feature","properties":{"fid":186,"sq_yards":null,"plot_no":"218","facing":null,"status":"AVL","per_sq_ft_price":null,"per_sq_yard_price":null},"geometry":{"type":"Polygon","coordinates":[[[78.45430209860055,17.209626165171255],[78.45432884915321,17.209718642291087],[78.45419382255406,17.209735677544966],[78.45416452432973,17.209638333215985],[78.45430209860055,17.209626165171255]]]}},{"type":"Feature","properties":{"fid":187,"sq_yards":null,"plot_no":"211","facing":null,"status":"SOLD","per_sq_ft_price":null,"per_sq_yard_price":null},"geometry":{"type":"Polygon","coordinates":[[[78.45416452432973,17.209638333215985],[78.45402440238723,17.209655368477254],[78.45405752211911,17.209757580011924],[78.45419382255406,17.209735677544966],[78.45416452432973,17.209638333215985]]]}},{"type":"Feature","properties":{"fid":188,"sq_yards":null,"plot_no":"219","facing":null,"status":"RES","per_sq_ft_price":null,"per_sq_yard_price":null},"geometry":{"type":"Polygon","coordinates":[[[78.45432884915321,17.20971864229108],[78.45435687354173,17.20981720338108],[78.4542192992709,17.209831805019565],[78.45419382255406,17.209735677544966],[78.45432884915321,17.20971864229108]]]}},{"type":"Feature","properties":{"fid":189,"sq_yards":null,"plot_no":"210","facing":null,"status":"AVL","per_sq_ft_price":null,"per_sq_yard_price":null},"geometry":{"type":"Polygon","coordinates":[[[78.4542192992709,17.209831805019565],[78.4540817250001,17.209851273869102],[78.45405752211911,17.20975758001192],[78.45419382255406,17.209735677544966],[78.4542192992709,17.209831805019565]]]}},{"type":"Feature","properties":{"fid":190,"sq_yards":null,"plot_no":"220","facing":null,"status":"AVL","per_sq_ft_price":null,"per_sq_yard_price":null},"geometry":{"type":"Polygon","coordinates":[[[78.45435687354173,17.20981720338108],[78.45438795513618,17.209923308594554],[78.4542478331937,17.20993791022467],[78.4542192992709,17.209831805019565],[78.45435687354173,17.20981720338108]]]}},{"type":"Feature","properties":{"fid":191,"sq_yards":null,"plot_no":"209","facing":null,"status":"AVL","per_sq_ft_price":null,"per_sq_yard_price":null},"geometry":{"type":"Polygon","coordinates":[[[78.4542478331937,17.20993791022467],[78.45411025892288,17.209954945458353],[78.4540817250001,17.209851273869102],[78.4542192992709,17.209831805019565],[78.4542478331937,17.20993791022467]]]}},{"type":"Feature","properties":{"fid":192,"sq_yards":null,"plot_no":"221","facing":null,"status":"RES","per_sq_ft_price":null,"per_sq_yard_price":null},"geometry":{"type":"Polygon","coordinates":[[[78.45425735928849,17.20993691754283],[78.45428757687193,17.210092200712495],[78.45443534182948,17.210086116705156],[78.45438795513618,17.209923308594554],[78.45425735928849,17.20993691754283]]]}},{"type":"Feature","properties":{"fid":193,"sq_yards":null,"plot_no":"208","facing":null,"status":"AVL","per_sq_ft_price":null,"per_sq_yard_price":null},"geometry":{"type":"Polygon","coordinates":[[[78.45425735928849,17.209936917542827],[78.45428757687193,17.210092200712495],[78.4541461810936,17.21008976710958],[78.45411025892288,17.209954945458353],[78.45425735928849,17.209936917542827]]]}},{"type":"Feature","properties":{"fid":194,"sq_yards":null,"plot_no":"180","facing":null,"status":"AVL","per_sq_ft_price":null,"per_sq_yard_price":null},"geometry":{"type":"Polygon","coordinates":[[[78.4542749826558,17.207298543642572],[78.45430682855185,17.207459163771148],[78.45414250372838,17.207487150597476],[78.45410811016067,17.207316795936933],[78.4542749826558,17.207298543642572]]]}},{"type":"Feature","properties":{"fid":195,"sq_yards":null,"plot_no":"181","facing":null,"status":"AVL","per_sq_ft_price":null,"per_sq_yard_price":null},"geometry":{"type":"Polygon","coordinates":[[[78.45414250372838,17.207487150597476],[78.45396416671066,17.207512703783028],[78.45392849930711,17.20734721642353],[78.45410811016067,17.207316795936933],[78.45414250372838,17.207487150597476]]]}},{"type":"Feature","properties":{"fid":196,"sq_yards":null,"plot_no":"179","facing":null,"status":"AVL","per_sq_ft_price":null,"per_sq_yard_price":null},"geometry":{"type":"Polygon","coordinates":[[[78.45430682855185,17.207459163771148],[78.45433230526864,17.20756867741523],[78.45416288510184,17.20758814650073],[78.45414250372838,17.207487150597476],[78.45430682855185,17.207459163771148]]]}},{"type":"Feature","properties":{"fid":197,"sq_yards":null,"plot_no":"182","facing":null,"status":"SOLD","per_sq_ft_price":null,"per_sq_yard_price":null},"geometry":{"type":"Polygon","coordinates":[[[78.45416288510184,17.20758814650073],[78.45398836959163,17.207619783760286],[78.45396416671066,17.207512703783028],[78.45414250372838,17.207487150597476],[78.45416288510184,17.20758814650073]]]}},{"type":"Feature","properties":{"fid":198,"sq_yards":null,"plot_no":"178","facing":null,"status":"AVL","per_sq_ft_price":null,"per_sq_yard_price":null},"geometry":{"type":"Polygon","coordinates":[[[78.45433230526862,17.20756867741523],[78.45435141280626,17.2076769741773],[78.4541896356545,17.207701310519592],[78.45416288510184,17.20758814650073],[78.45433230526862,17.20756867741523]]]}},{"type":"Feature","properties":{"fid":199,"sq_yards":null,"plot_no":"183","facing":null,"status":"SOLD","per_sq_ft_price":null,"per_sq_yard_price":null},"geometry":{"type":"Polygon","coordinates":[[[78.45416288510184,17.20758814650073],[78.4541896356545,17.20770131051959],[78.45401002480094,17.207726863675575],[78.45398836959163,17.207619783760286],[78.45416288510184,17.20758814650073]]]}},{"type":"Feature","properties":{"fid":200,"sq_yards":null,"plot_no":"177","facing":null,"status":"AVL","per_sq_ft_price":null,"per_sq_yard_price":null},"geometry":{"type":"Polygon","coordinates":[[[78.45435854628698,17.207677704267613],[78.45436937389162,17.20778782619056],[78.45421460283697,17.207805470028475],[78.4541896356545,17.20770131051959],[78.45435854628698,17.207677704267613]]]}},{"type":"Feature","properties":{"fid":201,"sq_yards":null,"plot_no":"184","facing":null,"status":"AVL","per_sq_ft_price":null,"per_sq_yard_price":null},"geometry":{"type":"Polygon","coordinates":[[[78.4541896356545,17.20770131051959],[78.45421460283697,17.207805470028475],[78.45403881349108,17.207839054156683],[78.45401002480094,17.207726863675575],[78.4541896356545,17.20770131051959]]]}},{"type":"Feature","properties":{"fid":202,"sq_yards":null,"plot_no":"172","facing":null,"status":"SOLD","per_sq_ft_price":null,"per_sq_yard_price":null},"geometry":{"type":"Polygon","coordinates":[[[78.45457179833873,17.207382325874516],[78.45472083713209,17.20735798949338],[78.45468899123608,17.207204670218626],[78.45454759545773,17.207224139339925],[78.45457179833873,17.207382325874516]]]}},{"type":"Feature","properties":{"fid":203,"sq_yards":null,"plot_no":"173","facing":null,"status":"RES","per_sq_ft_price":null,"per_sq_yard_price":null},"geometry":{"type":"Polygon","coordinates":[[[78.45457179833873,17.207382325874516],[78.4544087473511,17.207404228614802],[78.4543781752909,17.207253343018035],[78.45454759545773,17.207224139339925],[78.45457179833873,17.207382325874516]]]}},{"type":"Feature","properties":{"fid":204,"sq_yards":null,"plot_no":"171","facing":null,"status":"AVL","per_sq_ft_price":null,"per_sq_yard_price":null},"geometry":{"type":"Polygon","coordinates":[[[78.45472083713209,17.20735798949338],[78.45474376617723,17.20746872000169],[78.45458963204051,17.207494273186498],[78.45457179833873,17.207382325874516],[78.45472083713209,17.20735798949338]]]}},{"type":"Feature","properties":{"fid":205,"sq_yards":null,"plot_no":"174","facing":null,"status":"RES","per_sq_ft_price":null,"per_sq_yard_price":null},"geometry":{"type":"Polygon","coordinates":[[[78.45457179833873,17.207382325874516],[78.4544087473511,17.207404228614802],[78.45443422406791,17.207517392731617],[78.45458963204051,17.207494273186498],[78.45457179833873,17.207382325874516]]]}},{"type":"Feature","properties":{"fid":206,"sq_yards":null,"plot_no":"170","facing":null,"status":"AVL","per_sq_ft_price":null,"per_sq_yard_price":null},"geometry":{"type":"Polygon","coordinates":[[[78.45474376617723,17.20746872000169],[78.45476159987899,17.207580667261393],[78.45461256108564,17.20760256997819],[78.45458963204051,17.207494273186498],[78.45474376617723,17.20746872000169]]]}},{"type":"Feature","properties":{"fid":207,"sq_yards":null,"plot_no":"175","facing":null,"status":"AVL","per_sq_ft_price":null,"per_sq_yard_price":null},"geometry":{"type":"Polygon","coordinates":[[[78.45461256108564,17.20760256997819],[78.45445460544137,17.207626906327153],[78.45443422406791,17.207517392731614],[78.45458963204051,17.207494273186498],[78.45461256108564,17.20760256997819]]]}},{"type":"Feature","properties":{"fid":208,"sq_yards":null,"plot_no":"169","facing":null,"status":"AVL","per_sq_ft_price":null,"per_sq_yard_price":null},"geometry":{"type":"Polygon","coordinates":[[[78.45477433823741,17.207577016808337],[78.45478070741662,17.207673145381357],[78.45463549013078,17.20770843307285],[78.45461256108564,17.20760256997819],[78.45477433823741,17.207577016808337]]]}},{"type":"Feature","properties":{"fid":209,"sq_yards":null,"plot_no":"176","facing":null,"status":"RES","per_sq_ft_price":null,"per_sq_yard_price":null},"geometry":{"type":"Polygon","coordinates":[[[78.45463549013078,17.20770843307285],[78.45448517750155,17.207742503941],[78.45445460544137,17.207626906327153],[78.45461256108564,17.20760256997819],[78.45463549013078,17.20770843307285]]]}},{"type":"Feature","properties":{"fid":210,"sq_yards":null,"plot_no":"165","facing":null,"status":"AVL","per_sq_ft_price":null,"per_sq_yard_price":null},"geometry":{"type":"Polygon","coordinates":[[[78.45512368951911,17.207135403791927],[78.45515044007176,17.207294807229573],[78.4549899367558,17.207319143620182],[78.45496063853146,17.207158523383004],[78.45512368951911,17.207135403791927]]]}},{"type":"Feature","properties":{"fid":211,"sq_yards":null,"plot_no":"166","facing":null,"status":"AVL","per_sq_ft_price":null,"per_sq_yard_price":null},"geometry":{"type":"Polygon","coordinates":[[[78.45496063853146,17.207158523383004],[78.45478484918544,17.20719259435406],[78.45481159973811,17.2073568650193],[78.4549899367558,17.207319143620182],[78.45496063853146,17.207158523383004]]]}},{"type":"Feature","properties":{"fid":212,"sq_yards":null,"plot_no":"164","facing":null,"status":"AVL","per_sq_ft_price":null,"per_sq_yard_price":null},"geometry":{"type":"Polygon","coordinates":[[[78.45515044007176,17.207294807229573],[78.45516954760936,17.20740553778099],[78.4550077704576,17.207431090975753],[78.4549899367558,17.207319143620182],[78.45515044007176,17.207294807229573]]]}},{"type":"Feature","properties":{"fid":213,"sq_yards":null,"plot_no":"167","facing":null,"status":"AVL","per_sq_ft_price":null,"per_sq_yard_price":null},"geometry":{"type":"Polygon","coordinates":[[[78.4549899367558,17.207319143620182],[78.4550077704576,17.207431090975753],[78.45483325494737,17.207455427348428],[78.45481159973811,17.2073568650193],[78.4549899367558,17.207319143620182]]]}},{"type":"Feature","properties":{"fid":214,"sq_yards":null,"plot_no":"163","facing":null,"status":"AVL","per_sq_ft_price":null,"per_sq_yard_price":null},"geometry":{"type":"Polygon","coordinates":[[[78.45518228596778,17.20740553778099],[78.45519757199787,17.207538170991608],[78.4550396163536,17.2075868437056],[78.4550077704576,17.207431090975753],[78.45518228596778,17.20740553778099]]]}},{"type":"Feature","properties":{"fid":215,"sq_yards":null,"plot_no":"168","facing":null,"status":"RES","per_sq_ft_price":null,"per_sq_yard_price":null},"geometry":{"type":"Polygon","coordinates":[[[78.4550396163536,17.2075868437056],[78.4548740176943,17.207642817310862],[78.45483325494737,17.207455427348428],[78.4550077704576,17.207431090975753],[78.4550396163536,17.2075868437056]]]}},{"type":"Feature","properties":{"fid":216,"sq_yards":null,"plot_no":"159","facing":null,"status":"RES","per_sq_ft_price":null,"per_sq_yard_price":null},"geometry":{"type":"Polygon","coordinates":[[[78.45551595278732,17.207044423089773],[78.45554270333997,17.207190441570948],[78.45540130756163,17.20721234433319],[78.45538092618817,17.207063892227257],[78.45551595278732,17.207044423089773]]]}},{"type":"Feature","properties":{"fid":217,"sq_yards":null,"plot_no":"160","facing":null,"status":"SOLD","per_sq_ft_price":null,"per_sq_yard_price":null},"geometry":{"type":"Polygon","coordinates":[[[78.45538092618817,17.207063892227257],[78.4552318873948,17.207095529571298],[78.45525354260408,17.207239114372403],[78.45540130756163,17.20721234433319],[78.45538092618817,17.207063892227257]]]}},{"type":"Feature","properties":{"fid":218,"sq_yards":null,"plot_no":"158","facing":null,"status":"SOLD","per_sq_ft_price":null,"per_sq_yard_price":null},"geometry":{"type":"Polygon","coordinates":[[[78.45554270333997,17.20719044157094],[78.45555544169838,17.20728778716105],[78.45542168893509,17.207313340369964],[78.45540130756163,17.20721234433319],[78.45554270333997,17.20719044157094]]]}},{"type":"Feature","properties":{"fid":219,"sq_yards":null,"plot_no":"161","facing":null,"status":"AVL","per_sq_ft_price":null,"per_sq_yard_price":null},"geometry":{"type":"Polygon","coordinates":[[[78.45540130756163,17.20721234433319],[78.45525354260408,17.207239114372403],[78.45527519781339,17.207343760852165],[78.45542168893509,17.207313340369964],[78.45540130756163,17.20721234433319]]]}},{"type":"Feature","properties":{"fid":220,"sq_yards":null,"plot_no":"157","facing":null,"status":"AVL","per_sq_ft_price":null,"per_sq_yard_price":null},"geometry":{"type":"Polygon","coordinates":[[[78.45544079647271,17.20742650453844],[78.45556945389261,17.207380265424195],[78.45555544169838,17.20728778716105],[78.45542168893509,17.207313340369964],[78.45544079647271,17.20742650453844]]]}},{"type":"Feature","properties":{"fid":221,"sq_yards":null,"plot_no":"162","facing":null,"status":"AVL","per_sq_ft_price":null,"per_sq_yard_price":null},"geometry":{"type":"Polygon","coordinates":[[[78.45542168893509,17.207313340369964],[78.45527519781339,17.207343760852165],[78.45530194836606,17.20747882773271],[78.45544079647271,17.20742650453844],[78.45542168893509,17.207313340369964]]]}},{"type":"Feature","properties":{"fid":222,"sq_yards":null,"plot_no":"153","facing":null,"status":"AVL","per_sq_ft_price":null,"per_sq_yard_price":null},"geometry":{"type":"Polygon","coordinates":[[[78.45574723912286,17.207173633225377],[78.4558886349012,17.20714564635168],[78.45586188434854,17.206999627811527],[78.45572431007773,17.207019096956873],[78.45574723912286,17.207173633225377]]]}},{"type":"Feature","properties":{"fid":223,"sq_yards":null,"plot_no":"154","facing":null,"status":"RES","per_sq_ft_price":null,"per_sq_yard_price":null},"geometry":{"type":"Polygon","coordinates":[[[78.45572431007773,17.207019096956873],[78.45558164046356,17.207054384777596],[78.45560329567287,17.207208921016612],[78.45574723912286,17.207173633225377],[78.45572431007773,17.207019096956873]]]}},{"type":"Feature","properties":{"fid":224,"sq_yards":null,"plot_no":"152","facing":null,"status":"SOLD","per_sq_ft_price":null,"per_sq_yard_price":null},"geometry":{"type":"Polygon","coordinates":[[[78.4558886349012,17.20714564635168],[78.45590392093128,17.20725516018116],[78.4557574298096,17.207277062939273],[78.45574723912286,17.207173633225377],[78.4558886349012,17.20714564635168]]]}},{"type":"Feature","properties":{"fid":225,"sq_yards":null,"plot_no":"155","facing":null,"status":"AVL","per_sq_ft_price":null,"per_sq_yard_price":null},"geometry":{"type":"Polygon","coordinates":[[[78.4557574298096,17.207277062939266],[78.45561730786709,17.207302616153804],[78.45560329567287,17.207208921016612],[78.45574723912286,17.207173633225377],[78.4557574298096,17.207277062939266]]]}},{"type":"Feature","properties":{"fid":226,"sq_yards":null,"plot_no":"151","facing":null,"status":"AVL","per_sq_ft_price":null,"per_sq_yard_price":null},"geometry":{"type":"Polygon","coordinates":[[[78.45577016816799,17.207356156210885],[78.45591946172854,17.207329872912073],[78.45590392093128,17.20725516018116],[78.4557574298096,17.207277062939266],[78.45577016816799,17.207356156210885]]]}},{"type":"Feature","properties":{"fid":227,"sq_yards":null,"plot_no":"156","facing":null,"status":"AVL","per_sq_ft_price":null,"per_sq_yard_price":null},"geometry":{"type":"Polygon","coordinates":[[[78.4557574298096,17.207277062939266],[78.45561730786709,17.207302616153804],[78.4556379440077,17.207391930694943],[78.45577016816799,17.20735615621088],[78.4557574298096,17.207277062939266]]]}},{"type":"Feature","properties":{"fid":228,"sq_yards":null,"plot_no":"150","facing":null,"status":"AVL","per_sq_ft_price":null,"per_sq_yard_price":null},"geometry":{"type":"Polygon","coordinates":[[[78.45610524942666,17.207172915599035],[78.45612435696425,17.20728607986725],[78.45601480708196,17.20730433216209],[78.45599824721602,17.207189951084693],[78.45610524942666,17.207172915599035]]]}},{"type":"Feature","properties":{"fid":229,"sq_yards":null,"plot_no":"145","facing":null,"status":"AVL","per_sq_ft_price":null,"per_sq_yard_price":null},"geometry":{"type":"Polygon","coordinates":[[[78.456222442324,17.20714979600885],[78.45610524942666,17.207172915599035],[78.45612435696425,17.20728607986725],[78.45623772835408,17.207266610750768],[78.456222442324,17.20714979600885]]]}},{"type":"Feature","properties":{"fid":230,"sq_yards":null,"plot_no":"146","facing":null,"status":"AVL","per_sq_ft_price":null,"per_sq_yard_price":null},"geometry":{"type":"Polygon","coordinates":[[[78.4562097039656,17.207070702652125],[78.456222442324,17.20714979600885],[78.45610524942666,17.207172915599035],[78.45609633257577,17.207096255894147],[78.4562097039656,17.207070702652125]]]}},{"type":"Feature","properties":{"fid":231,"sq_yards":null,"plot_no":"149","facing":null,"status":"AVL","per_sq_ft_price":null,"per_sq_yard_price":null},"geometry":{"type":"Polygon","coordinates":[[[78.45609633257577,17.207096255894147],[78.45598168735009,17.20711329138687],[78.45598550885762,17.20719116790504],[78.45610524942666,17.207172915599035],[78.45609633257577,17.207096255894147]]]}},{"type":"Feature","properties":{"fid":232,"sq_yards":null,"plot_no":"147","facing":null,"status":"RES","per_sq_ft_price":null,"per_sq_yard_price":null},"geometry":{"type":"Polygon","coordinates":[[[78.4562097039656,17.207070702652125],[78.45618677492047,17.206928334524825],[78.4560695820231,17.206951454142697],[78.45609633257577,17.207096255894147],[78.4562097039656,17.207070702652125]]]}},{"type":"Feature","properties":{"fid":233,"sq_yards":null,"plot_no":"148","facing":null,"status":"AVL","per_sq_ft_price":null,"per_sq_yard_price":null},"geometry":{"type":"Polygon","coordinates":[[[78.4560695820231,17.206951454142697],[78.45596003214077,17.206975790579428],[78.45598168735009,17.20711329138687],[78.45609633257577,17.207096255894147],[78.4560695820231,17.206951454142697]]]}},{"type":"Feature","properties":{"fid":234,"sq_yards":null,"plot_no":"141","facing":null,"status":"AVL","per_sq_ft_price":null,"per_sq_yard_price":null},"geometry":{"type":"Polygon","coordinates":[[[78.45657720087772,17.206838874535354],[78.45660140375873,17.206984893189787],[78.45645618647288,17.207009229620983],[78.45643835277109,17.20686807827546],[78.45657720087772,17.206838874535354]]]}},{"type":"Feature","properties":{"fid":235,"sq_yards":null,"plot_no":"142","facing":null,"status":"RES","per_sq_ft_price":null,"per_sq_yard_price":null},"geometry":{"type":"Polygon","coordinates":[[[78.45643835277109,17.20686807827546],[78.45629568315692,17.206897282010953],[78.4563173383662,17.2070384333342],[78.45645618647288,17.207009229620983],[78.45643835277109,17.20686807827546]]]}},{"type":"Feature","properties":{"fid":236,"sq_yards":null,"plot_no":"140","facing":null,"status":"AVL","per_sq_ft_price":null,"per_sq_yard_price":null},"geometry":{"type":"Polygon","coordinates":[[[78.45660140375873,17.206984893189787],[78.4566128682813,17.207085889358336],[78.45647529401049,17.207106575313777],[78.4564655742132,17.207007656364176],[78.45660140375873,17.206984893189787]]]}},{"type":"Feature","properties":{"fid":237,"sq_yards":null,"plot_no":"143","facing":null,"status":"RES","per_sq_ft_price":null,"per_sq_yard_price":null},"geometry":{"type":"Polygon","coordinates":[[[78.4564655742132,17.207007656364176],[78.4563173383662,17.2070384333342],[78.45633771973968,17.207136995832272],[78.45647529401049,17.207106575313777],[78.4564655742132,17.207007656364176]]]}},{"type":"Feature","properties":{"fid":238,"sq_yards":null,"plot_no":"139","facing":null,"status":"AVL","per_sq_ft_price":null,"per_sq_yard_price":null},"geometry":{"type":"Polygon","coordinates":[[[78.4566128682813,17.20708588935833],[78.45662305896803,17.207162549063934],[78.45648930620473,17.20719175275295],[78.45647529401049,17.207106575313777],[78.4566128682813,17.20708588935833]]]}},{"type":"Feature","properties":{"fid":239,"sq_yards":null,"plot_no":"144","facing":null,"status":"RES","per_sq_ft_price":null,"per_sq_yard_price":null},"geometry":{"type":"Polygon","coordinates":[[[78.45647529401049,17.207106575313777],[78.45633771973968,17.207136995832272],[78.45634918426225,17.207225823717646],[78.45648930620473,17.20719175275295],[78.45647529401049,17.207106575313777]]]}},{"type":"Feature","properties":{"fid":240,"sq_yards":null,"plot_no":"136","facing":null,"status":"AVL","per_sq_ft_price":null,"per_sq_yard_price":null},"geometry":{"type":"Polygon","coordinates":[[[78.45694318423735,17.206766427182583],[78.4569635656108,17.206916096364893],[78.45682471750415,17.206947733737522],[78.4568081576382,17.206795630934977],[78.45694318423735,17.206766427182583]]]}},{"type":"Feature","properties":{"fid":241,"sq_yards":null,"plot_no":"137","facing":null,"status":"AVL","per_sq_ft_price":null,"per_sq_yard_price":null},"geometry":{"type":"Polygon","coordinates":[[[78.4568081576382,17.206795630934977],[78.45666166651651,17.206829701973618],[78.45668204788997,17.20697572063957],[78.45682471750415,17.206947733737522],[78.4568081576382,17.206795630934977]]]}},{"type":"Feature","properties":{"fid":242,"sq_yards":null,"plot_no":"135","facing":null,"status":"AVL","per_sq_ft_price":null,"per_sq_yard_price":null},"geometry":{"type":"Polygon","coordinates":[[[78.4569635656108,17.206916096364893],[78.45698394698424,17.207081584100322],[78.45684892038513,17.207112004623816],[78.45682471750415,17.206947733737522],[78.4569635656108,17.206916096364893]]]}},{"type":"Feature","properties":{"fid":243,"sq_yards":null,"plot_no":"138","facing":null,"status":"RES","per_sq_ft_price":null,"per_sq_yard_price":null},"geometry":{"type":"Polygon","coordinates":[[[78.45682471750415,17.206947733737522],[78.45668204788997,17.20697572063957],[78.45671007227845,17.207149726066003],[78.45684892038513,17.207112004623816],[78.45682471750415,17.206947733737522]]]}},{"type":"Feature","properties":{"fid":244,"sq_yards":null,"plot_no":"132","facing":null,"status":"AVL","per_sq_ft_price":null,"per_sq_yard_price":null},"geometry":{"type":"Polygon","coordinates":[[[78.45714656781287,17.206733581052262],[78.45716502946782,17.20684403416257],[78.45701892946157,17.20687229886813],[78.45700619110313,17.20675670069547],[78.45714656781287,17.206733581052262]]]}},{"type":"Feature","properties":{"fid":245,"sq_yards":null,"plot_no":"133","facing":null,"status":"AVL","per_sq_ft_price":null,"per_sq_yard_price":null},"geometry":{"type":"Polygon","coordinates":[[[78.45716502946782,17.206844034162568],[78.45717982419131,17.206932548564502],[78.45703039398413,17.206958693244744],[78.45701892946157,17.20687229886813],[78.45716502946782,17.206844034162568]]]}},{"type":"Feature","properties":{"fid":246,"sq_yards":null,"plot_no":"134","facing":null,"status":"AVL","per_sq_ft_price":null,"per_sq_yard_price":null},"geometry":{"type":"Polygon","coordinates":[[[78.45705141227549,17.207066260271358],[78.45719497357486,17.207023184795357],[78.45717982419131,17.206932548564502],[78.45703039398413,17.206958693244744],[78.45705141227549,17.207066260271358]]]}}]}